{"type":"FeatureCollection","features":[{"type":"Feature","geometry":{"type":"LineString","coordinates":[[-6.42823,53.33233],[-6.4311,53.33249]]},"properties":{"edge_id":"13042225630-13140064061-0","order":0,"length_m":191.2,"serves_app_ids":["SDCC-SDZ23A/0043","SDCC-SDZ25A/0012W"]}},{"type":"Feature","geometry":{"type":"LineString","coordinates":[[-6.52746,53.36122],[-6.52764,53.36188],[-6.52777,53.36199]]},"properties":{"edge_id":"13310795557-13310795560-0","order":0,"length_m":89.8,"serves_app_ids":["KCC-2461073"]}},{"type":"Feature","geometry":{"type":"LineString","coordinates":[[-6.45087,53.50438],[-6.45063,53.5044],[-6.45046,53.50432]]},"properties":{"edge_id":"30843039-59611372-0","order":0,"length_m":31.2,"serves_app_ids":["MCC-2460487"]}},{"type":"Feature","geometry":{"type":"LineString","coordinates":[[-6.46886,53.43598],[-6.46921,53.43604],[-6.46966,53.43635]]},"properties":{"edge_id":"497394758-549841349-0","order":0,"length_m":70.0,"serves_app_ids":["MCC-2460805","MCC-2660001","MCC-2660607"]}},{"type":"Feature","geometry":{"type":"LineString","coordinates":[[-6.52712,53.36108],[-6.5275,53.36113],[-6.52746,53.36122]]},"properties":{"edge_id":"13310795560-13310795571-0","order":1,"length_m":35.7,"serves_app_ids":["KCC-2461073"]}},{"type":"Feature","geometry":{"type":"LineString","coordinates":[[-6.46966,53.43635],[-6.47023,53.43641]]},"properties":{"edge_id":"497394755-497394758-0","order":1,"length_m":39.5,"serves_app_ids":["MCC-2460805","MCC-2660001","MCC-2660607"]}},{"type":"Feature","geometry":{"type":"LineString","coordinates":[[-6.47023,53.43641],[-6.47209,53.4358],[-6.47358,53.43494]]},"properties":{"edge_id":"430267196-497394755-0","order":2,"length_m":278.9,"serves_app_ids":["MCC-2460805","MCC-2660001","MCC-2660607"]}},{"type":"Feature","geometry":{"type":"LineString","coordinates":[[-6.47358,53.43494],[-6.47342,53.43479],[-6.47346,53.43462],[-6.47371,53.43451],[-6.47403,53.43453]]},"properties":{"edge_id":"430267171-430267196-0","order":3,"length_m":82.4,"serves_app_ids":["MCC-2460805","MCC-2660001","MCC-2660607"]}}]}