{"type":"FeatureCollection","features":[{"type":"Feature","geometry":{"type":"LineString","coordinates":[[-6.2935,53.34646],[-6.2998,53.34596],[-6.30094,53.346],[-6.30226,53.34586],[-6.30358,53.34552],[-6.30549,53.34438],[-6.30667,53.34384],[-6.30815,53.34339],[-6.31158,53.34299],[-6.3188,53.34254],[-6.32147,53.34223],[-6.35089,53.33647],[-6.35428,53.3359],[-6.35663,53.33567],[-6.39182,53.33293],[-6.39415,53.33286],[-6.3972,53.33294],[-6.47848,53.33635],[-6.48143,53.33636],[-6.48599,53.33614],[-6.48943,53.33581],[-6.49295,53.33529],[-6.49559,53.33479],[-6.49833,53.33416],[-6.50211,53.33308],[-6.5062,53.33163],[-6.50972,53.3301],[-6.51415,53.32777],[-6.51757,53.32586],[-6.52091,53.32389],[-6.53679,53.31414],[-6.53905,53.31294],[-6.54045,53.31231],[-6.54442,53.3108],[-6.57522,53.30034]]},"properties":{"id":"DUB-CORK-O","mode":"rail","name":"Dublin - Cork"}},{"type":"Feature","geometry":{"type":"MultiLineString","coordinates":[[[-6.57522,53.30038],[-6.54478,53.31072],[-6.54103,53.3121],[-6.53882,53.3131],[-6.5367,53.31425],[-6.53236,53.31691],[-6.52492,53.32173],[-6.51935,53.32508],[-6.51369,53.32818],[-6.50987,53.33017],[-6.50772,53.33115],[-6.5049,53.33227],[-6.50252,53.33309],[-6.49973,53.33393],[-6.49713,53.33459],[-6.49488,53.33506],[-6.49165,53.33563],[-6.48824,53.33605],[-6.48482,53.33634],[-6.48141,53.33648],[-6.47764,53.33645],[-6.46802,53.33611],[-6.45629,53.33555],[-6.43166,53.33456],[-6.40212,53.33331],[-6.39669,53.33303],[-6.39435,53.33298],[-6.39262,53.33301],[-6.38976,53.33319],[-6.37923,53.33406],[-6.36368,53.33525]],[[-6.36368,53.33525],[-6.36534,53.33509]],[[-6.36534,53.33509],[-6.36592,53.33504]],[[-6.36592,53.33504],[-6.36674,53.33497]],[[-6.36674,53.33497],[-6.36765,53.3349]],[[-6.36765,53.3349],[-6.36898,53.33479]],[[-6.36898,53.33479],[-6.37071,53.33466]],[[-6.37071,53.33466],[-6.37204,53.33455]],[[-6.37204,53.33455],[-6.37313,53.33447]],[[-6.37313,53.33447],[-6.37374,53.33443]],[[-6.37374,53.33443],[-6.37447,53.33438]],[[-6.37447,53.33438],[-6.37529,53.33432]],[[-6.37529,53.33432],[-6.376,53.33427]],[[-6.376,53.33427],[-6.37753,53.33416]],[[-6.37753,53.33416],[-6.37941,53.33401]],[[-6.37941,53.33401],[-6.38085,53.3339]],[[-6.38085,53.3339],[-6.38281,53.33371]],[[-6.38281,53.33371],[-6.38371,53.33363]],[[-6.38371,53.33363],[-6.38576,53.33347]],[[-6.38576,53.33347],[-6.38819,53.33328]],[[-6.38819,53.33328],[-6.39013,53.33312]],[[-6.39013,53.33312],[-6.39146,53.33304]],[[-6.39146,53.33304],[-6.39218,53.33299]],[[-6.39218,53.33299],[-6.39266,53.33298]],[[-6.39266,53.33298],[-6.39373,53.33295]],[[-6.39373,53.33295],[-6.39485,53.33295]],[[-6.39485,53.33295],[-6.39575,53.33296]],[[-6.39575,53.33296],[-6.39733,53.33303]],[[-6.39733,53.33303],[-6.39889,53.33311]],[[-6.39889,53.33311],[-6.40005,53.33316]],[[-6.40005,53.33316],[-6.40082,53.33321]],[[-6.40082,53.33321],[-6.40171,53.33325]],[[-6.40171,53.33325],[-6.40237,53.33328]],[[-6.40237,53.33328],[-6.40295,53.3333]],[[-6.40295,53.3333],[-6.40495,53.33339]],[[-6.40495,53.33339],[-6.40593,53.33343]],[[-6.40593,53.33343],[-6.40802,53.33352]],[[-6.40802,53.33352],[-6.40834,53.33353]],[[-6.40834,53.33353],[-6.41002,53.33359]],[[-6.41002,53.33359],[-6.41144,53.33363]],[[-6.41144,53.33363],[-6.41236,53.33367]],[[-6.41236,53.33367],[-6.41346,53.33372]],[[-6.41346,53.33372],[-6.41505,53.33378]],[[-6.41505,53.33378],[-6.4166,53.33385]],[[-6.4166,53.33385],[-6.41824,53.33392]],[[-6.41824,53.33392],[-6.4196,53.33398]],[[-6.4196,53.33398],[-6.42123,53.33405]],[[-6.42123,53.33405],[-6.42274,53.33411]],[[-6.42274,53.33411],[-6.42427,53.33418]],[[-6.42427,53.33418],[-6.42543,53.33424]],[[-6.42543,53.33424],[-6.42706,53.33433]],[[-6.42706,53.33433],[-6.42859,53.3344]],[[-6.42859,53.3344],[-6.4324,53.33457]],[[-6.4324,53.33457],[-6.43392,53.33462]],[[-6.43392,53.33462],[-6.43522,53.33466]],[[-6.43522,53.33466],[-6.4363,53.33469]],[[-6.4363,53.33469],[-6.43778,53.33475]],[[-6.43778,53.33475],[-6.43916,53.3348]],[[-6.43916,53.3348],[-6.44064,53.33486]],[[-6.44064,53.33486],[-6.44209,53.33492]],[[-6.44209,53.33492],[-6.44381,53.335]],[[-6.44381,53.335],[-6.44536,53.33506]],[[-6.44536,53.33506],[-6.44739,53.33514]],[[-6.44739,53.33514],[-6.4486,53.3352]],[[-6.4486,53.3352],[-6.45024,53.33526]],[[-6.45024,53.33526],[-6.45229,53.33534]],[[-6.45229,53.33534],[-6.45382,53.33541]],[[-6.45382,53.33541],[-6.45556,53.33548]],[[-6.45556,53.33548],[-6.45668,53.33553]],[[-6.45668,53.33553],[-6.45839,53.33561]],[[-6.45839,53.33561],[-6.46042,53.33572]],[[-6.46042,53.33572],[-6.46277,53.33584]],[[-6.46277,53.33584],[-6.46359,53.33584]],[[-6.46359,53.33584],[-6.46419,53.33585]],[[-6.46419,53.33585],[-6.46445,53.33585]],[[-6.46445,53.33585],[-6.46403,53.33582]],[[-6.46403,53.33582],[-6.46349,53.33576]],[[-6.46349,53.33576],[-6.45433,53.33538]],[[-6.45433,53.33538],[-6.45273,53.33532]],[[-6.45273,53.33532],[-6.45103,53.33525]],[[-6.45103,53.33525],[-6.44588,53.33503]],[[-6.44588,53.33503],[-6.44019,53.33479]],[[-6.44019,53.33479],[-6.43784,53.33469]],[[-6.43784,53.33469],[-6.4355,53.33459]],[[-6.4355,53.33459],[-6.43273,53.33449]],[[-6.43273,53.33449],[-6.43027,53.33438]],[[-6.43027,53.33438],[-6.40835,53.33344]],[[-6.40835,53.33344],[-6.40746,53.3334]],[[-6.40746,53.3334],[-6.4064,53.33335]],[[-6.4064,53.33335],[-6.40628,53.33335]],[[-6.40628,53.33335],[-6.40334,53.33323]],[[-6.40334,53.33323],[-6.39882,53.33303]],[[-6.39882,53.33303],[-6.39753,53.33297]],[[-6.39753,53.33297],[-6.39551,53.33291]],[[-6.39551,53.33291],[-6.39442,53.3329]],[[-6.39442,53.3329],[-6.39261,53.33293]],[[-6.39261,53.33293],[-6.39158,53.33298]],[[-6.39158,53.33298],[-6.39,53.33309]],[[-6.39,53.33309],[-6.38765,53.33327]],[[-6.38765,53.33327],[-6.38603,53.3334]],[[-6.38603,53.3334],[-6.38436,53.33352]],[[-6.38436,53.33352],[-6.38243,53.33367]],[[-6.38243,53.33367],[-6.38123,53.33377]],[[-6.38123,53.33377],[-6.37997,53.33387]],[[-6.37997,53.33387],[-6.379,53.33394]],[[-6.379,53.33394],[-6.37875,53.33396]],[[-6.36368,53.33525],[-6.356,53.33577],[-6.35301,53.33613],[-6.34036,53.33854],[-6.3297,53.34066],[-6.32122,53.34223],[-6.31903,53.34249],[-6.31139,53.34298],[-6.30812,53.34336],[-6.30685,53.34371],[-6.30395,53.34499],[-6.30189,53.34559],[-6.29908,53.34594],[-6.29347,53.34635]]]},"properties":{"id":"DUB-WATERFORD-I","mode":"rail","name":"Dublin - Waterford"}},{"type":"Feature","geometry":{"type":"LineString","coordinates":[[-6.23757,53.33942],[-6.24161,53.34128],[-6.24553,53.34262],[-6.24976,53.34362],[-6.25078,53.34402],[-6.25138,53.34443],[-6.25376,53.34646],[-6.25428,53.34703],[-6.25459,53.34763],[-6.25467,53.34841],[-6.25444,53.34918],[-6.25343,53.35018],[-6.25004,53.35197],[-6.249,53.35237],[-6.24768,53.35269],[-6.24516,53.35378],[-6.24195,53.35551],[-6.24034,53.35621],[-6.21414,53.36974],[-6.21189,53.37067],[-6.20431,53.37303],[-6.20254,53.37374],[-6.19474,53.37742],[-6.19316,53.37809],[-6.19053,53.37897],[-6.18743,53.37971],[-6.17544,53.38174],[-6.17315,53.38223],[-6.17056,53.38295],[-6.16834,53.38372],[-6.16601,53.3847],[-6.16409,53.38566],[-6.16188,53.38702],[-6.15438,53.39254],[-6.15326,53.39353],[-6.15235,53.3945],[-6.15093,53.39655],[-6.1503,53.39796],[-6.14902,53.40248],[-6.14876,53.40416],[-6.14881,53.40557],[-6.15699,53.44414],[-6.15723,53.44618],[-6.14721,53.51429],[-6.14668,53.51592],[-6.14606,53.51726],[-6.14507,53.51884],[-6.14397,53.52022],[-6.11447,53.54984],[-6.11356,53.55103],[-6.11298,53.55207],[-6.11251,53.55349],[-6.11239,53.55444],[-6.11242,53.5556],[-6.11263,53.5568],[-6.11501,53.56834],[-6.11539,53.56938],[-6.11624,53.57086],[-6.11727,53.57214],[-6.11857,53.57344],[-6.12016,53.57474],[-6.12251,53.5763],[-6.12436,53.5773],[-6.1269,53.57844],[-6.13051,53.57969],[-6.14118,53.58265],[-6.1446,53.58374],[-6.14874,53.58536],[-6.15003,53.586],[-6.15135,53.5868],[-6.1529,53.58801],[-6.15926,53.59397],[-6.16489,53.60004],[-6.16676,53.6019],[-6.16926,53.60375],[-6.18113,53.61106],[-6.18307,53.61241],[-6.18453,53.6137],[-6.19136,53.62063],[-6.1939,53.62279],[-6.19621,53.62437],[-6.198,53.6254],[-6.20862,53.63058],[-6.21087,53.63187],[-6.21253,53.63303],[-6.21488,53.63508],[-6.21599,53.63632],[-6.21687,53.63751],[-6.2319,53.66212]]},"properties":{"id":"DUB-EUROPORT-I","mode":"rail","name":"Dublin - Europort"}},{"type":"Feature","geometry":{"type":"LineString","coordinates":[[-6.57257,53.37969],[-6.54995,53.37717],[-6.54591,53.37664],[-6.54226,53.37626],[-6.54021,53.37594],[-6.53092,53.37416],[-6.52882,53.37365],[-6.52763,53.37326],[-6.52634,53.37272],[-6.52303,53.37094],[-6.52125,53.37035],[-6.51966,53.37003],[-6.5129,53.36896],[-6.51089,53.36886],[-6.50971,53.36896],[-6.50864,53.36919],[-6.50689,53.3699],[-6.50619,53.37036],[-6.50534,53.37117],[-6.50402,53.37305],[-6.50273,53.37425],[-6.50207,53.37464],[-6.50104,53.37506],[-6.49978,53.37537],[-6.49859,53.37551],[-6.49723,53.3755],[-6.4852,53.37415],[-6.47237,53.37311],[-6.47039,53.37281],[-6.46853,53.37242],[-6.4642,53.37127],[-6.46232,53.37095],[-6.46098,53.37087],[-6.45979,53.3709],[-6.45782,53.37115],[-6.4558,53.37173],[-6.45447,53.37246],[-6.44546,53.38019],[-6.44209,53.38261],[-6.44072,53.38331],[-6.43879,53.384],[-6.43716,53.38439],[-6.43528,53.38465],[-6.43284,53.38471],[-6.43088,53.38451],[-6.42392,53.38315],[-6.41861,53.38174],[-6.41678,53.38135],[-6.40473,53.37931],[-6.39815,53.37787],[-6.39669,53.37767],[-6.39455,53.37752],[-6.39181,53.37758],[-6.38904,53.37796],[-6.38017,53.3802],[-6.376,53.38099],[-6.36412,53.38235],[-6.36228,53.38244],[-6.3607,53.38237],[-6.35813,53.38199],[-6.35482,53.38119],[-6.35199,53.3804],[-6.35035,53.3798],[-6.34269,53.37635],[-6.34182,53.37604],[-6.33988,53.37556],[-6.3379,53.37527],[-6.33645,53.37519],[-6.32997,53.37546],[-6.31687,53.37539],[-6.31372,53.37514],[-6.30639,53.37417],[-6.29666,53.3722],[-6.29293,53.37137],[-6.29181,53.37125],[-6.28957,53.37122],[-6.28793,53.37094],[-6.28666,53.3705],[-6.28164,53.36777],[-6.28008,53.36706],[-6.27849,53.36651],[-6.27567,53.36587],[-6.27323,53.36521],[-6.27119,53.36491],[-6.26635,53.3648],[-6.26469,53.36463],[-6.26292,53.36426],[-6.25812,53.3629],[-6.25526,53.36217],[-6.24584,53.36126],[-6.24449,53.36102],[-6.24335,53.36063],[-6.24255,53.36025],[-6.24203,53.35993],[-6.24146,53.35941],[-6.24087,53.35856],[-6.24068,53.35801],[-6.24066,53.35722],[-6.2408,53.35669],[-6.2413,53.35596],[-6.24195,53.35551],[-6.24508,53.35376],[-6.24739,53.35278]]},"properties":{"id":"DUB-SLIGO-O","mode":"rail","name":"Dublin - Sligo"}},{"type":"Feature","geometry":{"type":"LineString","coordinates":[[-6.23184,53.66212],[-6.21679,53.63747],[-6.21592,53.63631],[-6.21487,53.63516],[-6.21404,53.63434],[-6.21247,53.63304],[-6.21067,53.63179],[-6.20857,53.6306],[-6.19791,53.62539],[-6.1957,53.62409],[-6.19397,53.6229],[-6.19163,53.62095],[-6.18449,53.61373],[-6.18276,53.61221],[-6.18151,53.61134],[-6.16923,53.60378],[-6.16698,53.60215],[-6.16538,53.60064],[-6.15865,53.59344],[-6.15278,53.58797],[-6.15174,53.58712],[-6.15075,53.58646],[-6.1492,53.58562],[-6.14752,53.58488],[-6.14338,53.58337],[-6.1409,53.58261],[-6.13016,53.57962],[-6.12675,53.57842],[-6.1244,53.57737],[-6.12258,53.57639],[-6.12073,53.57521],[-6.1186,53.57353],[-6.1175,53.57247],[-6.11628,53.571],[-6.11554,53.56981],[-6.11495,53.56835],[-6.11246,53.55623],[-6.11232,53.55444],[-6.11255,53.55304],[-6.1129,53.55207],[-6.1135,53.55102],[-6.11441,53.54982],[-6.14389,53.52025],[-6.1451,53.51871],[-6.14593,53.51739],[-6.14673,53.51566],[-6.14714,53.5143],[-6.15549,53.45815],[-6.15717,53.44614],[-6.15712,53.44515],[-6.15674,53.44323],[-6.14875,53.4056],[-6.14872,53.40393],[-6.14903,53.40223],[-6.15021,53.39807],[-6.15095,53.39641],[-6.15191,53.39498],[-6.15263,53.39413],[-6.15461,53.3923],[-6.16242,53.3866],[-6.16451,53.3854],[-6.16629,53.38452],[-6.16841,53.38367],[-6.17064,53.38289],[-6.17399,53.382],[-6.18742,53.37967],[-6.19056,53.37893],[-6.19308,53.37808],[-6.20171,53.37407],[-6.20401,53.3731],[-6.21147,53.37077],[-6.21285,53.37026],[-6.21455,53.36952],[-6.23991,53.35638],[-6.24195,53.35551],[-6.24508,53.35376],[-6.2476,53.35268],[-6.24908,53.3523],[-6.25001,53.35195],[-6.25344,53.35012],[-6.25391,53.34973],[-6.25444,53.349],[-6.25463,53.34816],[-6.25449,53.34754],[-6.25393,53.34669],[-6.25106,53.34425],[-6.25034,53.34387],[-6.24981,53.34369],[-6.24599,53.34278],[-6.24396,53.34217],[-6.24104,53.3411],[-6.23748,53.33951]]},"properties":{"id":"DUB-DRO/DUN-O","mode":"rail","name":"Dublin - Drogheda/Dundalk"}},{"type":"Feature","geometry":{"type":"LineString","coordinates":[[-6.29347,53.34635],[-6.29934,53.34591],[-6.30193,53.34557],[-6.30266,53.34541],[-6.30398,53.34497],[-6.30685,53.34371],[-6.30812,53.34336],[-6.31156,53.34296],[-6.31831,53.34254],[-6.32132,53.34221],[-6.32966,53.34065],[-6.35221,53.33622],[-6.35428,53.3359],[-6.35663,53.33567],[-6.39158,53.33298],[-6.39443,53.33288],[-6.39753,53.33297],[-6.47843,53.33638],[-6.48152,53.33638],[-6.48622,53.33616],[-6.48954,53.33583],[-6.49269,53.33537],[-6.4954,53.33487],[-6.49796,53.33429],[-6.50194,53.33317],[-6.50575,53.33185],[-6.50978,53.3301],[-6.51322,53.32832],[-6.51867,53.32529],[-6.53661,53.31425],[-6.53858,53.31318],[-6.54045,53.31231],[-6.54442,53.3108],[-6.57522,53.30034]]},"properties":{"id":"DUB-PORTLAOIS-O","mode":"rail","name":"Dublin - Portlaoise"}},{"type":"Feature","geometry":{"type":"LineString","coordinates":[[-6.24754,53.3529],[-6.24512,53.35386],[-6.24205,53.35546],[-6.24034,53.35621],[-6.21414,53.36974],[-6.21189,53.37067],[-6.20431,53.37303],[-6.20254,53.37374],[-6.19474,53.37742],[-6.19316,53.37809],[-6.19053,53.37897],[-6.18743,53.37971],[-6.17544,53.38174],[-6.17315,53.38223],[-6.17056,53.38295],[-6.16834,53.38372],[-6.16601,53.3847],[-6.16409,53.38566],[-6.16188,53.38702],[-6.15492,53.39212],[-6.15326,53.39353],[-6.15235,53.3945],[-6.15141,53.39575],[-6.15037,53.39776],[-6.14902,53.40248],[-6.14879,53.4038],[-6.14879,53.40542],[-6.15699,53.44414],[-6.15723,53.44618],[-6.14721,53.51429],[-6.14668,53.51592],[-6.14606,53.51726],[-6.14507,53.51884],[-6.14397,53.52022],[-6.11447,53.54984],[-6.11356,53.55103],[-6.11298,53.55207],[-6.11251,53.55349],[-6.11239,53.55444],[-6.11242,53.5556],[-6.11263,53.5568],[-6.11501,53.56834],[-6.11539,53.56938],[-6.11624,53.57086],[-6.11727,53.57214],[-6.11857,53.57344],[-6.12016,53.57474],[-6.12251,53.5763],[-6.12436,53.5773],[-6.1269,53.57844],[-6.13051,53.57969],[-6.14118,53.58265],[-6.1446,53.58374],[-6.14874,53.58536],[-6.15003,53.586],[-6.15135,53.5868],[-6.1529,53.58801],[-6.15926,53.59397],[-6.16489,53.60004],[-6.16676,53.6019],[-6.16926,53.60375],[-6.18113,53.61106],[-6.18307,53.61241],[-6.18453,53.6137],[-6.19136,53.62063],[-6.1939,53.62279],[-6.19621,53.62437],[-6.198,53.6254],[-6.20862,53.63058],[-6.21087,53.63187],[-6.21253,53.63303],[-6.21488,53.63508],[-6.21599,53.63632],[-6.21687,53.63751],[-6.2319,53.66212]]},"properties":{"id":"DUB-BFT-O","mode":"rail","name":"Dublin - Belfast"}},{"type":"Feature","geometry":{"type":"LineString","coordinates":[[-6.57257,53.37969],[-6.54995,53.37717],[-6.54591,53.37664],[-6.54226,53.37626],[-6.54021,53.37594],[-6.53092,53.37416],[-6.52882,53.37365],[-6.52763,53.37326],[-6.52634,53.37272],[-6.52303,53.37094],[-6.52125,53.37035],[-6.51966,53.37003],[-6.5129,53.36896],[-6.51089,53.36886],[-6.50971,53.36896],[-6.5087,53.36918],[-6.50794,53.36943],[-6.50689,53.3699],[-6.50619,53.37036],[-6.50534,53.37117],[-6.50402,53.37305],[-6.50273,53.37425],[-6.50207,53.37464],[-6.50104,53.37506],[-6.49978,53.37537],[-6.49859,53.37551],[-6.49723,53.3755],[-6.4852,53.37415],[-6.47237,53.37311],[-6.47039,53.37281],[-6.46853,53.37242],[-6.4642,53.37127],[-6.46232,53.37095],[-6.46098,53.37087],[-6.45979,53.3709],[-6.45782,53.37115],[-6.4558,53.37173],[-6.45447,53.37246],[-6.44546,53.38019],[-6.44209,53.38261],[-6.44072,53.38331],[-6.43879,53.384],[-6.43716,53.38439],[-6.43528,53.38465],[-6.43284,53.38471],[-6.43088,53.38451],[-6.42392,53.38315],[-6.41861,53.38174],[-6.41678,53.38135],[-6.40473,53.37931],[-6.39815,53.37787],[-6.39669,53.37767],[-6.39455,53.37752],[-6.3918,53.37758],[-6.38904,53.37796],[-6.38017,53.3802],[-6.376,53.38099],[-6.36412,53.38235],[-6.36228,53.38244],[-6.3607,53.38237],[-6.35813,53.38199],[-6.35482,53.38119],[-6.35199,53.3804],[-6.35035,53.3798],[-6.34269,53.37635],[-6.34182,53.37604],[-6.33988,53.37556],[-6.3379,53.37527],[-6.33645,53.37519],[-6.32997,53.37546],[-6.31687,53.37539],[-6.31372,53.37514],[-6.30639,53.37417],[-6.29666,53.3722],[-6.29293,53.37137],[-6.29181,53.37125],[-6.28957,53.37122],[-6.28793,53.37094],[-6.28666,53.3705],[-6.28164,53.36777],[-6.28008,53.36706],[-6.27849,53.36651],[-6.27567,53.36587],[-6.27323,53.36521],[-6.27119,53.36491],[-6.26635,53.3648],[-6.26469,53.36463],[-6.26292,53.36426],[-6.25812,53.3629],[-6.25526,53.36217],[-6.24584,53.36126],[-6.24449,53.36102],[-6.24335,53.36063],[-6.24255,53.36025],[-6.24203,53.35993],[-6.24146,53.35941],[-6.24087,53.35856],[-6.24068,53.35801],[-6.24066,53.35722],[-6.2408,53.35669],[-6.2413,53.35596],[-6.24193,53.35552],[-6.24512,53.35386],[-6.24754,53.3529]]},"properties":{"id":"DUB-MAYNOOTH-O","mode":"rail","name":"Dublin - Maynooth"}},{"type":"Feature","geometry":{"type":"LineString","coordinates":[[-6.10019,53.20372],[-6.10261,53.20737],[-6.10427,53.21095],[-6.10505,53.21199],[-6.1076,53.2146],[-6.10817,53.21545],[-6.10859,53.21634],[-6.11687,53.23607],[-6.11716,53.2371],[-6.11733,53.23823],[-6.11728,53.24241],[-6.11717,53.24344],[-6.11672,53.24475],[-6.11604,53.24584],[-6.11451,53.24782],[-6.11381,53.24931],[-6.11282,53.25804],[-6.11243,53.25938],[-6.11175,53.26059],[-6.11104,53.26146],[-6.1092,53.26328],[-6.10774,53.26535],[-6.10688,53.2662],[-6.10587,53.26675],[-6.09944,53.26901],[-6.0983,53.26947],[-6.09744,53.26994],[-6.09661,53.27084],[-6.09642,53.27136],[-6.09668,53.27234],[-6.09742,53.27322],[-6.09892,53.27424],[-6.10038,53.27486],[-6.11079,53.2775],[-6.12424,53.28156],[-6.12586,53.28223],[-6.1269,53.28301],[-6.12738,53.28363],[-6.12764,53.28427],[-6.12765,53.28689],[-6.1269,53.28875],[-6.12696,53.2894],[-6.12724,53.28994],[-6.12916,53.29173],[-6.13118,53.29317],[-6.13402,53.29459],[-6.13595,53.29542],[-6.13805,53.29601],[-6.1403,53.29629],[-6.14263,53.29621],[-6.14911,53.2955],[-6.15107,53.29537],[-6.15293,53.29541],[-6.1554,53.29576],[-6.15707,53.29619],[-6.16296,53.29839],[-6.16524,53.29916],[-6.16844,53.30004],[-6.17417,53.30143],[-6.17738,53.30236],[-6.18015,53.30337],[-6.18984,53.30728],[-6.19244,53.30844],[-6.19461,53.30961],[-6.19689,53.31102],[-6.21178,53.32092],[-6.2181,53.32562],[-6.23341,53.33728],[-6.236,53.33875],[-6.24101,53.34105],[-6.24512,53.34254],[-6.24957,53.34357],[-6.25037,53.34382],[-6.25098,53.34414],[-6.25413,53.34684],[-6.2546,53.34767],[-6.25468,53.34842],[-6.25441,53.34922],[-6.25395,53.34976],[-6.25325,53.3503],[-6.25176,53.35109],[-6.25005,53.35197],[-6.24512,53.35386],[-6.24195,53.35551],[-6.24034,53.35621],[-6.2181,53.36775],[-6.21498,53.36934],[-6.21318,53.37017],[-6.21141,53.37082],[-6.20431,53.37303],[-6.20254,53.37374],[-6.19395,53.37777],[-6.19103,53.37883],[-6.18743,53.37971],[-6.17544,53.38174],[-6.17385,53.38207],[-6.17056,53.38295],[-6.16834,53.38372],[-6.16601,53.3847],[-6.16409,53.38566],[-6.16188,53.38702],[-6.15687,53.39068],[-6.15567,53.39128],[-6.15421,53.39177],[-6.15223,53.39209],[-6.1507,53.39214],[-6.13363,53.39148],[-6.11608,53.39202],[-6.09534,53.3914],[-6.09124,53.39122],[-6.08486,53.39074],[-6.07413,53.38909]]},"properties":{"id":"BRAY-HOWTH-I","mode":"dart","name":"DART (Bray - Howth)"}},{"type":"Feature","geometry":{"type":"LineString","coordinates":[[-6.26046,53.35307],[-6.25984,53.3533],[-6.25948,53.35315],[-6.25763,53.34886],[-6.25702,53.34586],[-6.25723,53.34563],[-6.25878,53.34512],[-6.2591,53.3449],[-6.25938,53.34451],[-6.25917,53.34394],[-6.25923,53.34328],[-6.25795,53.34298],[-6.25774,53.34282],[-6.25868,53.33958],[-6.25898,53.33945],[-6.26047,53.3398],[-6.2608,53.3397],[-6.26232,53.33779],[-6.26268,53.33747],[-6.26306,53.3368],[-6.26328,53.33591],[-6.26314,53.33472],[-6.26245,53.33296],[-6.26208,53.33281],[-6.26062,53.33279],[-6.26045,53.33266],[-6.26032,53.33222],[-6.26012,53.332],[-6.25916,53.3316],[-6.25862,53.3306],[-6.25725,53.32906],[-6.25666,53.32795],[-6.25188,53.31089],[-6.25035,53.29931],[-6.25,53.29821],[-6.24928,53.29676],[-6.24742,53.29429],[-6.24512,53.29239],[-6.23763,53.28673],[-6.23628,53.2858],[-6.23441,53.28494],[-6.23183,53.28416],[-6.22917,53.2836],[-6.22635,53.28321],[-6.22195,53.28282],[-6.21923,53.2823],[-6.21793,53.28194],[-6.20807,53.27875],[-6.20425,53.27747],[-6.20358,53.27718],[-6.20341,53.27693],[-6.20329,53.27535],[-6.20344,53.27485],[-6.20393,53.27413],[-6.20394,53.27385],[-6.20355,53.27357],[-6.20097,53.27293],[-6.20069,53.27271],[-6.20066,53.27242],[-6.20136,53.27171],[-6.20439,53.26972],[-6.20556,53.26861],[-6.20635,53.26825],[-6.20791,53.26789],[-6.20844,53.2677],[-6.20925,53.26715],[-6.21061,53.26549],[-6.21088,53.26413],[-6.21087,53.26361],[-6.21072,53.26327],[-6.21036,53.26286],[-6.20985,53.26254],[-6.20538,53.26094],[-6.20346,53.2601],[-6.19838,53.25827],[-6.19593,53.2576],[-6.18349,53.25482],[-6.18257,53.25474],[-6.18169,53.2548],[-6.18085,53.255],[-6.17897,53.25575],[-6.1781,53.2559],[-6.17728,53.2559],[-6.17624,53.25572],[-6.17308,53.25473],[-6.16562,53.25304],[-6.16334,53.25271],[-6.15994,53.25258],[-6.15901,53.25237],[-6.15694,53.25135],[-6.14899,53.24826],[-6.14835,53.2477],[-6.14799,53.24688],[-6.14762,53.2464],[-6.14528,53.24501],[-6.14413,53.2441],[-6.14336,53.24311],[-6.14276,53.24187]]},"properties":{"id":"10000 GREEN g a","mode":"luas","name":"Green (Parnell - Brides Glen)"}},{"type":"Feature","geometry":{"type":"MultiLineString","coordinates":[[[-6.22918,53.3483],[-6.24925,53.34962],[-6.25023,53.34995],[-6.25041,53.35013]],[[-6.25041,53.35013],[-6.2504,53.35025],[-6.24989,53.35094],[-6.25017,53.35052],[-6.25041,53.35013]],[[-6.25041,53.35013],[-6.25063,53.34998],[-6.2509,53.34994],[-6.25221,53.35018],[-6.25238,53.35008],[-6.25267,53.34965],[-6.25286,53.34955],[-6.25372,53.34946],[-6.25526,53.34906],[-6.25846,53.34853],[-6.26383,53.34793],[-6.26745,53.34737],[-6.27256,53.34677],[-6.27529,53.34708],[-6.28005,53.34716],[-6.2828,53.34745],[-6.285,53.34778],[-6.28953,53.34795],[-6.29161,53.34791],[-6.29182,53.34777],[-6.29183,53.34753],[-6.29119,53.3435],[-6.29099,53.34329],[-6.29099,53.34314],[-6.2912,53.34299],[-6.29334,53.34252],[-6.29354,53.34233],[-6.29308,53.34158],[-6.29277,53.34151],[-6.29227,53.34158],[-6.29191,53.34144],[-6.29075,53.33964],[-6.29069,53.33934],[-6.2908,53.33905],[-6.29102,53.33882],[-6.29142,53.3386],[-6.29234,53.33844],[-6.30476,53.33707],[-6.3068,53.33665],[-6.32468,53.33462],[-6.32813,53.33414],[-6.32847,53.33399],[-6.3288,53.33362],[-6.3303,53.33148],[-6.3315,53.33045],[-6.3325,53.32987],[-6.33485,53.32883],[-6.33583,53.32852],[-6.34289,53.32679],[-6.34734,53.3255],[-6.36496,53.31915],[-6.36585,53.31898],[-6.36799,53.31888],[-6.36872,53.31872],[-6.36934,53.31849],[-6.36965,53.31827],[-6.3701,53.31762],[-6.3696,53.3163],[-6.36915,53.31603],[-6.36734,53.31559],[-6.36683,53.31538],[-6.36458,53.31329],[-6.36308,53.31217],[-6.36057,53.3091],[-6.3589,53.30756],[-6.35876,53.30693],[-6.35905,53.30641],[-6.35955,53.30606],[-6.36242,53.30474],[-6.36412,53.30407],[-6.36958,53.30223],[-6.37309,53.30065],[-6.37351,53.30015],[-6.37463,53.29941],[-6.37497,53.29908],[-6.37769,53.29758],[-6.37843,53.29734],[-6.38368,53.29621],[-6.3842,53.29601],[-6.38455,53.29572],[-6.38513,53.29454],[-6.38508,53.29419],[-6.3848,53.29383],[-6.37994,53.29031],[-6.37832,53.28894],[-6.37711,53.2876],[-6.37666,53.2874],[-6.37594,53.28729],[-6.37544,53.28731],[-6.37466,53.28749]]]},"properties":{"id":"10000 RED g a","mode":"luas","name":"Red (The Point - Tallaght)"}}]}