{"type":"FeatureCollection","features":[{"type":"Feature","geometry":{"type":"LineString","coordinates":[[-6.47609,53.42459],[-6.47726,53.42447],[-6.47459,53.42424],[-6.47297,53.42395],[-6.47158,53.42534],[-6.46981,53.42886],[-6.46901,53.4309],[-6.46911,53.43075],[-6.46981,53.42886],[-6.47158,53.42534],[-6.4752,53.42169],[-6.47833,53.42153],[-6.47862,53.42141],[-6.47986,53.42225],[-6.4803,53.42242],[-6.48259,53.42309],[-6.48502,53.42387],[-6.48792,53.42454],[-6.48813,53.42481],[-6.47403,53.43453],[-6.48813,53.42481],[-6.48792,53.42454],[-6.48502,53.42387],[-6.4844,53.42462],[-6.48388,53.42499],[-6.4831,53.42531],[-6.48388,53.42499],[-6.4844,53.42462],[-6.48487,53.42405],[-6.48502,53.42387],[-6.48792,53.42454],[-6.48813,53.42481],[-6.48874,53.42471],[-6.48813,53.42481],[-6.48792,53.42454],[-6.48502,53.42387],[-6.4803,53.42242],[-6.47883,53.42312],[-6.47861,53.42295],[-6.47883,53.42312],[-6.4803,53.42242],[-6.47986,53.42225],[-6.47884,53.42162],[-6.47862,53.42141],[-6.4782,53.42105],[-6.47753,53.42053],[-6.47619,53.41959],[-6.47539,53.4194],[-6.47481,53.41917]]},"properties":{"route_id":"R001","length_km":8.68,"round_trip_min":79.5,"headway_min":20,"buses_required":4,"serves_app_ids":["MCC-2439","MCC-2460625","MCC-2460805","MCC-2560481","MCC-2561045","MCC-2660001","MCC-2660033","MCC-2660281","MCC-2660543","MCC-2660589","MCC-2660607","MCC-2661080","MCC-2661172"],"peak_demand":139.7}},{"type":"Feature","geometry":{"type":"LineString","coordinates":[[-6.53945,53.51166],[-6.53946,53.51284],[-6.54078,53.51374],[-6.5417,53.51405],[-6.54188,53.5142],[-6.54215,53.51421],[-6.54241,53.51266],[-6.54256,53.51251],[-6.54268,53.51121],[-6.54256,53.51251],[-6.54241,53.51266],[-6.54215,53.51421],[-6.54188,53.5142],[-6.5417,53.51405],[-6.54141,53.51392],[-6.54078,53.51374],[-6.53946,53.51284],[-6.53951,53.51084],[-6.54002,53.50666],[-6.5397,53.50959],[-6.53951,53.51084],[-6.53945,53.51166],[-6.53946,53.51284],[-6.54078,53.51374],[-6.54141,53.51392],[-6.5417,53.51405],[-6.54188,53.5142],[-6.54215,53.51421],[-6.54487,53.51486],[-6.54669,53.51529],[-6.54925,53.51571],[-6.5489,53.51641],[-6.54909,53.51643],[-6.5489,53.51641],[-6.54925,53.51571],[-6.5476,53.51544],[-6.54669,53.51529],[-6.54215,53.51421],[-6.54188,53.5142],[-6.54148,53.51436],[-6.5411,53.51506],[-6.54047,53.51541],[-6.53872,53.51555],[-6.5378,53.51574],[-6.53573,53.51687],[-6.53404,53.51791],[-6.53358,53.51722],[-6.53378,53.51752],[-6.53404,53.51791],[-6.52956,53.52037],[-6.51347,53.52209],[-6.48598,53.51443],[-6.47514,53.5105],[-6.47452,53.51039],[-6.47306,53.51115],[-6.47283,53.51098],[-6.47166,53.51159]]},"properties":{"route_id":"R002","length_km":9.77,"round_trip_min":88.1,"headway_min":20,"buses_required":5,"serves_app_ids":["MCC-231016","MCC-2460114","MCC-2460325","MCC-25134","MCC-2547","MCC-2560158","MCC-2560180","MCC-2561073","MCC-2660438","MCC-2660508","MCC-2661101","MCC-2661206"],"peak_demand":51.5}},{"type":"Feature","geometry":{"type":"LineString","coordinates":[[-6.53208,53.17495],[-6.53237,53.17494],[-6.53208,53.17495],[-6.5308,53.17576],[-6.52995,53.17539],[-6.52959,53.17574],[-6.52849,53.17518],[-6.52783,53.17496],[-6.53018,53.17262],[-6.53238,53.17094],[-6.53332,53.1713],[-6.53206,53.17209],[-6.53211,53.1727],[-6.53115,53.17349],[-6.53211,53.1727],[-6.53206,53.17209],[-6.53332,53.1713],[-6.53238,53.17094],[-6.5333,53.17029],[-6.53242,53.16991],[-6.52776,53.17104],[-6.52795,53.17134],[-6.52727,53.17184],[-6.52795,53.17134],[-6.52782,53.17124],[-6.52776,53.17104],[-6.53242,53.16991],[-6.5333,53.17029],[-6.53238,53.17094],[-6.53332,53.1713],[-6.53463,53.17225],[-6.53599,53.17306],[-6.53684,53.17328],[-6.53822,53.17335],[-6.53833,53.17281],[-6.53839,53.17235],[-6.53724,53.17231],[-6.53624,53.17114],[-6.53521,53.17131],[-6.53624,53.17114],[-6.53724,53.17231],[-6.53839,53.17235],[-6.53833,53.17281],[-6.53828,53.173],[-6.53822,53.17335],[-6.53745,53.17333],[-6.53682,53.17346],[-6.53613,53.17376],[-6.53472,53.17679],[-6.53438,53.17729],[-6.53366,53.17726],[-6.53114,53.17621],[-6.53023,53.17704],[-6.52936,53.17735],[-6.52831,53.17623],[-6.52936,53.17735],[-6.53023,53.17704],[-6.53097,53.17759],[-6.53038,53.17829],[-6.53086,53.17849],[-6.53104,53.17834],[-6.53086,53.17849],[-6.53038,53.17829],[-6.53064,53.17798],[-6.53097,53.17759],[-6.53023,53.17704],[-6.53114,53.17621],[-6.53366,53.17726],[-6.53429,53.17733],[-6.53474,53.17733],[-6.53483,53.17746],[-6.54065,53.17891],[-6.53483,53.17746],[-6.53474,53.17733],[-6.53366,53.17726],[-6.53114,53.17621],[-6.52959,53.17574],[-6.52849,53.17518],[-6.52766,53.17515],[-6.52268,53.18272],[-6.52002,53.1854],[-6.51253,53.19113],[-6.50869,53.19585],[-6.50642,53.19758],[-6.50167,53.20148],[-6.47809,53.2147],[-6.47654,53.21511],[-6.46994,53.22027],[-6.45746,53.2318],[-6.45488,53.23541],[-6.45439,53.23651],[-6.45481,53.23729],[-6.45579,53.24119],[-6.45631,53.24592],[-6.45591,53.248],[-6.45129,53.25286],[-6.45093,53.25371],[-6.44223,53.2647],[-6.43505,53.27],[-6.42579,53.27398],[-6.42537,53.27405],[-6.42162,53.27551],[-6.41694,53.27529]]},"properties":{"route_id":"R003","length_km":22.99,"round_trip_min":193.9,"headway_min":20,"buses_required":10,"serves_app_ids":["WCC-2460329","WCC-2460694","WCC-2560074","WCC-2560521","WCC-2560548","WCC-2560928","WCC-2660353","WCC-2660597","WCC-268"],"peak_demand":96.8}},{"type":"Feature","geometry":{"type":"LineString","coordinates":[[-6.50383,53.29899],[-6.50403,53.29993],[-6.50703,53.29937],[-6.50403,53.29993],[-6.49999,53.29975],[-6.50019,53.29754],[-6.5001,53.29783],[-6.5001,53.29843],[-6.49999,53.29975],[-6.49746,53.29969],[-6.49664,53.29955],[-6.49762,53.29871],[-6.49786,53.29823],[-6.49939,53.29703],[-6.49971,53.2964],[-6.50069,53.29628],[-6.50077,53.29592],[-6.50069,53.29628],[-6.49971,53.2964],[-6.4995,53.29683],[-6.49939,53.29703],[-6.49786,53.29823],[-6.49762,53.29871],[-6.49664,53.29955],[-6.49746,53.29969],[-6.49999,53.29975],[-6.50003,53.29906],[-6.49878,53.29903],[-6.50003,53.29906],[-6.49999,53.29975],[-6.50126,53.29984],[-6.50094,53.3017],[-6.49943,53.30161],[-6.4988,53.30194],[-6.49801,53.30187],[-6.4988,53.30194],[-6.49943,53.30161],[-6.50094,53.3017],[-6.50126,53.29984],[-6.50403,53.29993],[-6.50703,53.29937],[-6.51447,53.31514],[-6.51866,53.31774],[-6.52248,53.32071],[-6.52572,53.32294],[-6.52598,53.32325],[-6.52592,53.32344],[-6.52564,53.3236],[-6.52496,53.32374],[-6.52433,53.32312]]},"properties":{"route_id":"R004","length_km":8.04,"round_trip_min":74.3,"headway_min":20,"buses_required":4,"serves_app_ids":["SDCC-LRD23A/0011","SDCC-LRD25A/0014W","SDCC-SD23A/0136","SDCC-SD23A/0150","SDCC-SD24A/0071","SDCC-SD25A/0146W","SDCC-SD25A/0289W"],"peak_demand":41.7}},{"type":"Feature","geometry":{"type":"LineString","coordinates":[[-6.32855,53.28497],[-6.32935,53.28509],[-6.32965,53.28418],[-6.32956,53.28451],[-6.33089,53.28459],[-6.33018,53.28457],[-6.33065,53.28571],[-6.33146,53.28683],[-6.33122,53.28657],[-6.32748,53.28761],[-6.32571,53.28472],[-6.32458,53.28478],[-6.32328,53.28474],[-6.32458,53.28478],[-6.32571,53.28472],[-6.32642,53.28591],[-6.32748,53.28761],[-6.32401,53.28881]]},"properties":{"route_id":"R005","length_km":2.19,"round_trip_min":27.5,"headway_min":20,"buses_required":2,"serves_app_ids":["SDCC-LRD24A/0001","SDCC-LRD26A/0001W","SDCC-PT8SD359","SDCC-SD23A/0117","SDCC-SD25A/0084","SDCC-SD25A/0189W","SDCC-SD26A/0001W"],"peak_demand":24.6}},{"type":"Feature","geometry":{"type":"LineString","coordinates":[[-6.21943,53.26259],[-6.21885,53.26267],[-6.21906,53.26322],[-6.21963,53.26316],[-6.21996,53.26303],[-6.22191,53.26366],[-6.22196,53.26484],[-6.22044,53.26513],[-6.22112,53.26501],[-6.22196,53.26484],[-6.22191,53.26366],[-6.22312,53.2635],[-6.22342,53.265],[-6.22327,53.26539],[-6.22405,53.26551],[-6.22327,53.26539],[-6.22342,53.265],[-6.22327,53.26393],[-6.22312,53.2635],[-6.22436,53.26294],[-6.22587,53.2627],[-6.22757,53.26289],[-6.22884,53.26413],[-6.22915,53.26529],[-6.22022,53.26803],[-6.21839,53.26697],[-6.21594,53.26596],[-6.21382,53.26476],[-6.21352,53.26446],[-6.2136,53.26438],[-6.21388,53.2642],[-6.21593,53.26334],[-6.21478,53.2622],[-6.21405,53.26172],[-6.21497,53.26108],[-6.21405,53.26172],[-6.21478,53.2622],[-6.21593,53.26334],[-6.21436,53.26403],[-6.21388,53.2642],[-6.21332,53.26431],[-6.21195,53.26285],[-6.21159,53.25955],[-6.21545,53.25664],[-6.21423,53.25761],[-6.21159,53.25955],[-6.21195,53.26285],[-6.21094,53.26272],[-6.21056,53.26282],[-6.21103,53.26492],[-6.21064,53.26485],[-6.20997,53.26591]]},"properties":{"route_id":"R006","length_km":6.71,"round_trip_min":63.7,"headway_min":20,"buses_required":4,"serves_app_ids":["DLRCC-D24A/0600/WEB","DLRCC-D25A/0663","DLRCC-LRD25A/0641/WEB","DLRCC-V/064/25","DLRCC-V/072/25"],"peak_demand":24.2}},{"type":"Feature","geometry":{"type":"LineString","coordinates":[[-6.52712,53.36108],[-6.52746,53.36122],[-6.52777,53.36199],[-6.52949,53.36197],[-6.52777,53.36199],[-6.52718,53.36352],[-6.52596,53.36337],[-6.52687,53.36349],[-6.52664,53.36408],[-6.52492,53.36385],[-6.52484,53.36516],[-6.52349,53.36535],[-6.52165,53.36548],[-6.52233,53.36453],[-6.52319,53.36411],[-6.5234,53.36326],[-6.5234,53.36258],[-6.52317,53.36177],[-6.52254,53.36109],[-6.52417,53.36094],[-6.52254,53.36109],[-6.52317,53.36177],[-6.5234,53.36258],[-6.52341,53.36301],[-6.5234,53.36326],[-6.52322,53.36388],[-6.52319,53.36411],[-6.52233,53.36453],[-6.52165,53.36548],[-6.52349,53.36535],[-6.52484,53.36516],[-6.52664,53.36522],[-6.52702,53.36537],[-6.51837,53.37239],[-6.52177,53.37327]]},"properties":{"route_id":"R007","length_km":4.24,"round_trip_min":43.9,"headway_min":20,"buses_required":3,"serves_app_ids":["KCC-231011","KCC-2360485","KCC-23952","KCC-2460055","KCC-2461073"],"peak_demand":29.3}},{"type":"Feature","geometry":{"type":"LineString","coordinates":[[-6.45357,53.49865],[-6.4532,53.49861],[-6.4528,53.49891],[-6.45303,53.49975],[-6.4541,53.50058],[-6.45423,53.50157],[-6.45402,53.50235],[-6.45421,53.50301],[-6.45118,53.50405],[-6.45014,53.50427],[-6.44969,53.50429],[-6.44559,53.50371],[-6.45486,53.49741],[-6.45473,53.49748],[-6.44559,53.50371],[-6.44969,53.50429],[-6.45014,53.50427],[-6.45047,53.50417],[-6.45118,53.50405],[-6.45421,53.50301],[-6.45402,53.50235],[-6.45418,53.50169],[-6.45423,53.50157],[-6.4541,53.50058],[-6.45331,53.49998],[-6.45303,53.49975],[-6.45265,53.50016],[-6.45167,53.50014],[-6.45167,53.50019],[-6.45167,53.50014],[-6.45265,53.50016],[-6.45281,53.49995],[-6.45303,53.49975],[-6.45331,53.49998],[-6.4541,53.50058],[-6.45423,53.50157],[-6.45418,53.50169],[-6.45402,53.50235],[-6.45421,53.50301],[-6.45118,53.50405],[-6.45097,53.50429],[-6.45147,53.50448]]},"properties":{"route_id":"R008","length_km":5.03,"round_trip_min":50.2,"headway_min":20,"buses_required":3,"serves_app_ids":["MCC-24382","MCC-2461100","MCC-2660045","MCC-2661012"],"peak_demand":40.1}},{"type":"Feature","geometry":{"type":"LineString","coordinates":[[-6.3701,53.29654],[-6.36964,53.29503],[-6.37088,53.29504],[-6.3706,53.29412],[-6.37088,53.29504],[-6.36964,53.29503],[-6.37061,53.29802],[-6.36762,53.29838],[-6.36812,53.29908],[-6.36943,53.29915],[-6.36942,53.29864],[-6.36838,53.29878],[-6.36942,53.29864],[-6.36943,53.29915],[-6.36812,53.29908],[-6.36762,53.29838],[-6.36897,53.29824],[-6.37061,53.29802],[-6.37159,53.29918],[-6.37276,53.29867],[-6.37293,53.29867],[-6.37465,53.29969]]},"properties":{"route_id":"R009","length_km":2.31,"round_trip_min":28.5,"headway_min":20,"buses_required":2,"serves_app_ids":["SDCC-SD24A/108W","SDCC-SD26A/0023","SDCC-SHD3ABP-309916-21/EP"],"peak_demand":19.5}},{"type":"Feature","geometry":{"type":"LineString","coordinates":[[-6.10794,53.21301],[-6.10828,53.21379],[-6.10887,53.21467],[-6.11078,53.21433],[-6.11417,53.21337],[-6.11386,53.21164],[-6.11482,53.21118],[-6.11686,53.21068],[-6.11695,53.21054],[-6.11554,53.20955],[-6.11121,53.20946],[-6.10951,53.2084],[-6.10631,53.20935],[-6.10643,53.20985],[-6.10765,53.21074],[-6.10625,53.21112],[-6.10765,53.21074],[-6.10704,53.21026],[-6.10643,53.20985],[-6.10631,53.20935],[-6.10951,53.2084],[-6.11121,53.20946],[-6.11554,53.20955],[-6.11656,53.21021],[-6.11695,53.21054],[-6.11686,53.21068],[-6.1156,53.21096],[-6.11482,53.21118],[-6.11386,53.21164],[-6.11417,53.21337],[-6.11078,53.21433],[-6.11417,53.21337],[-6.11386,53.21164],[-6.11482,53.21118],[-6.1156,53.21096],[-6.11686,53.21068],[-6.11695,53.21054],[-6.11656,53.21021],[-6.11554,53.20955]]},"properties":{"route_id":"R010","length_km":4.92,"round_trip_min":49.4,"headway_min":20,"buses_required":3,"serves_app_ids":["DLRCC-LRD25A/0644/WEB","DLRCC-V/064/26"],"peak_demand":18.2}},{"type":"Feature","geometry":{"type":"LineString","coordinates":[[-6.14014,53.48937],[-6.14084,53.49043],[-6.13993,53.49103],[-6.14116,53.49183],[-6.1416,53.49175],[-6.14178,53.49132],[-6.1416,53.49175],[-6.14116,53.49183],[-6.14081,53.49157],[-6.13993,53.49103],[-6.13778,53.4923],[-6.13678,53.49247],[-6.13416,53.49247],[-6.12966,53.49266],[-6.12919,53.49247],[-6.13078,53.4898],[-6.13618,53.48753],[-6.13927,53.48598],[-6.14128,53.48572],[-6.14205,53.48584],[-6.14318,53.48388],[-6.14783,53.48471],[-6.14977,53.48533],[-6.15171,53.48535]]},"properties":{"route_id":"R011","length_km":3.62,"round_trip_min":39.0,"headway_min":20,"buses_required":2,"serves_app_ids":["FCC-F26A/0509E","FCC-LRD0039/S3"],"peak_demand":42.7}},{"type":"Feature","geometry":{"type":"LineString","coordinates":[[-6.46564,53.41949],[-6.46722,53.41964],[-6.46721,53.41903],[-6.46559,53.41881],[-6.46721,53.41903],[-6.46813,53.41788],[-6.46651,53.41756],[-6.46528,53.41747]]},"properties":{"route_id":"R012","length_km":0.74,"round_trip_min":15.9,"headway_min":20,"buses_required":1,"serves_app_ids":["MCC-2460709","MCC-2660481"],"peak_demand":132.6}},{"type":"Feature","geometry":{"type":"LineString","coordinates":[[-6.53061,53.50491],[-6.53183,53.5039],[-6.53125,53.50365],[-6.5316,53.50349],[-6.52931,53.50232],[-6.5306,53.50097],[-6.53245,53.49982],[-6.53699,53.50307],[-6.53838,53.50392],[-6.53916,53.50464],[-6.54002,53.50666],[-6.53945,53.51166],[-6.53778,53.51149],[-6.53678,53.51104],[-6.53497,53.51052],[-6.5339,53.51031],[-6.53299,53.51027],[-6.53189,53.51045],[-6.53133,53.51119],[-6.51486,53.51089],[-6.51041,53.50993],[-6.48565,53.51059],[-6.48598,53.51443],[-6.47442,53.51019],[-6.47403,53.5101],[-6.47158,53.50901]]},"properties":{"route_id":"R013","length_km":7.65,"round_trip_min":71.2,"headway_min":20,"buses_required":4,"serves_app_ids":["MCC-2460950","MCC-2561019"],"peak_demand":100.9}},{"type":"Feature","geometry":{"type":"LineString","coordinates":[[-6.39214,53.49967],[-6.39007,53.49968],[-6.38781,53.50023],[-6.39292,53.50627],[-6.39528,53.50825],[-6.39616,53.5091],[-6.39787,53.50927],[-6.39807,53.50711],[-6.39855,53.50595],[-6.39965,53.50609],[-6.40095,53.50479],[-6.40066,53.50445],[-6.39963,53.50418],[-6.39974,53.50401],[-6.39875,53.50379],[-6.39887,53.50359],[-6.39775,53.50333],[-6.39887,53.50359],[-6.39875,53.50379],[-6.39974,53.50401],[-6.39963,53.50418],[-6.40013,53.50428],[-6.40066,53.50445],[-6.40095,53.50479],[-6.39965,53.50609],[-6.39855,53.50595],[-6.39832,53.50648],[-6.39807,53.50711],[-6.39796,53.50788],[-6.39787,53.50927],[-6.39616,53.5091],[-6.39528,53.50825],[-6.39292,53.50627],[-6.39094,53.50387]]},"properties":{"route_id":"R014","length_km":4.23,"round_trip_min":43.9,"headway_min":20,"buses_required":3,"serves_app_ids":["MCC-2460848","MCC-2561044"],"peak_demand":84.4}},{"type":"Feature","geometry":{"type":"LineString","coordinates":[[-6.44027,53.33147],[-6.43353,53.33305],[-6.43129,53.33249],[-6.43251,53.3282],[-6.43268,53.32808],[-6.43245,53.32773],[-6.42988,53.31988],[-6.42959,53.31942],[-6.42869,53.31968],[-6.42259,53.3205],[-6.42228,53.32087],[-6.42287,53.3219],[-6.42354,53.32257],[-6.42431,53.32299],[-6.42618,53.32437],[-6.42608,53.32495],[-6.42551,53.32607],[-6.42551,53.32635],[-6.42521,53.32667],[-6.42382,53.32936],[-6.42387,53.32959],[-6.42416,53.32963],[-6.42641,53.32907],[-6.42747,53.32889],[-6.42875,53.32885],[-6.42875,53.32945],[-6.42949,53.3295],[-6.42953,53.32983],[-6.43011,53.32983]]},"properties":{"route_id":"R015","length_km":4.32,"round_trip_min":44.6,"headway_min":20,"buses_required":3,"serves_app_ids":["SDCC-SDZ25A/0044W","SDCC-SDZ25X/0001"],"peak_demand":151.7}},{"type":"Feature","geometry":{"type":"LineString","coordinates":[[-6.48423,53.37588],[-6.48591,53.37222],[-6.48542,53.37212],[-6.48273,53.37338],[-6.47897,53.37261],[-6.47845,53.37238],[-6.47797,53.37298],[-6.47795,53.37313],[-6.4788,53.37314],[-6.47795,53.37313],[-6.47845,53.37238],[-6.47897,53.37261],[-6.48273,53.37338],[-6.48542,53.37212],[-6.48591,53.37222],[-6.48617,53.3717],[-6.48806,53.37196],[-6.48766,53.37266],[-6.48719,53.37322],[-6.48699,53.37383],[-6.48561,53.37363]]},"properties":{"route_id":"R016","length_km":2.47,"round_trip_min":29.7,"headway_min":20,"buses_required":2,"serves_app_ids":["KCC-2660746","KCC-2660878"],"peak_demand":45.1}}]}