{"type":"FeatureCollection","features":[{"type":"Feature","geometry":{"type":"LineString","coordinates":[[-6.42823,53.33233],[-6.42892,53.33236],[-6.42946,53.33239],[-6.42972,53.33241],[-6.42989,53.33242],[-6.43002,53.33243],[-6.43035,53.33246],[-6.43041,53.33246],[-6.4311,53.33249]]},"properties":{"edge_id":"13042225630-13140064061-0","order":0,"length_m":191.2,"serves_app_ids":["SDCC-SDZ23A/0043","SDCC-SDZ25A/0012W"],"street_name":null,"highway":"unclassified","units_served":989,"est_residents_served":3461,"avg_daily_demand_m3":400.5,"nominal_bore_mm":250,"pe_outside_diameter_mm":null,"peak_flow_lps":28.97,"peak_velocity_mps":0.59,"sizing_basis":"> 700 dwellings, beyond the Uisce Éireann IW-CDS-5020-03 Rev 2 (2020) table: smallest standard bore keeping peak velocity ≤ 0.9 m/s (hydraulic model required in practice)"}},{"type":"Feature","geometry":{"type":"LineString","coordinates":[[-6.49629,53.36673],[-6.49601,53.36671],[-6.49571,53.36671]]},"properties":{"edge_id":"132067866-616403608-0","order":0,"length_m":38.5,"serves_app_ids":["KCC-2561413","KCC-2561424"],"street_name":"Station Road","highway":"secondary","units_served":84,"est_residents_served":216,"avg_daily_demand_m3":34.0,"nominal_bore_mm":100,"pe_outside_diameter_mm":"110/125","peak_flow_lps":2.46,"peak_velocity_mps":0.31,"sizing_basis":"Uisce Éireann IW-CDS-5020-03 Rev 2 (2020) typical main size table (84 dwellings → 100 mm)"}},{"type":"Feature","geometry":{"type":"LineString","coordinates":[[-6.52746,53.36122],[-6.52764,53.36188],[-6.52772,53.36194],[-6.52777,53.36199]]},"properties":{"edge_id":"13310795557-13310795560-0","order":0,"length_m":89.8,"serves_app_ids":["KCC-2460962","KCC-2461073"],"street_name":"Harpur Avenue","highway":"residential","units_served":46,"est_residents_served":152,"avg_daily_demand_m3":18.6,"nominal_bore_mm":100,"pe_outside_diameter_mm":"110/125","peak_flow_lps":1.35,"peak_velocity_mps":0.17,"sizing_basis":"Uisce Éireann IW-CDS-5020-03 Rev 2 (2020) typical main size table (46 dwellings → 100 mm)"}},{"type":"Feature","geometry":{"type":"LineString","coordinates":[[-6.45087,53.50438],[-6.45082,53.5044],[-6.45077,53.50441],[-6.4507,53.50441],[-6.45063,53.5044],[-6.45057,53.50439],[-6.45052,53.50436],[-6.45046,53.50432]]},"properties":{"edge_id":"30843039-59611372-0","order":0,"length_m":31.2,"serves_app_ids":["MCC-2460487"],"street_name":"Ballybin Roundabout","highway":"secondary","units_served":141,"est_residents_served":485,"avg_daily_demand_m3":57.1,"nominal_bore_mm":150,"pe_outside_diameter_mm":"160/180","peak_flow_lps":4.13,"peak_velocity_mps":0.23,"sizing_basis":"Uisce Éireann IW-CDS-5020-03 Rev 2 (2020) typical main size table (141 dwellings → 150 mm)"}},{"type":"Feature","geometry":{"type":"LineString","coordinates":[[-6.46886,53.43598],[-6.46905,53.43601],[-6.46921,53.43604],[-6.46933,53.4361],[-6.46947,53.43618],[-6.46955,53.43625],[-6.46966,53.43635]]},"properties":{"edge_id":"497394758-549841349-0","order":0,"length_m":70.0,"serves_app_ids":["MCC-2460805","MCC-2660001","MCC-2660607"],"street_name":null,"highway":"secondary","units_served":789,"est_residents_served":2493,"avg_daily_demand_m3":319.5,"nominal_bore_mm":250,"pe_outside_diameter_mm":null,"peak_flow_lps":23.12,"peak_velocity_mps":0.47,"sizing_basis":"> 700 dwellings, beyond the Uisce Éireann IW-CDS-5020-03 Rev 2 (2020) table: smallest standard bore keeping peak velocity ≤ 0.9 m/s (hydraulic model required in practice)"}},{"type":"Feature","geometry":{"type":"LineString","coordinates":[[-6.52712,53.36108],[-6.5275,53.36113],[-6.52746,53.36122]]},"properties":{"edge_id":"13310795560-13310795571-0","order":1,"length_m":35.7,"serves_app_ids":["KCC-2461073"],"street_name":"Harpur Walk","highway":"residential","units_served":23,"est_residents_served":76,"avg_daily_demand_m3":9.3,"nominal_bore_mm":100,"pe_outside_diameter_mm":"110/125","peak_flow_lps":0.67,"peak_velocity_mps":0.09,"sizing_basis":"Uisce Éireann IW-CDS-5020-03 Rev 2 (2020) typical main size table (23 dwellings → 80 mm); raised to 100 mm public-main minimum (§3.5.26)"}},{"type":"Feature","geometry":{"type":"LineString","coordinates":[[-6.52762,53.36055],[-6.52765,53.36055],[-6.52961,53.36071],[-6.52948,53.3613],[-6.5293,53.3613],[-6.5279,53.36129],[-6.52746,53.36122]]},"properties":{"edge_id":"13310795560-13801626671-0","order":1,"length_m":334.9,"serves_app_ids":["KCC-2460962"],"street_name":"Harpur Park Vale / Harpur Way","highway":"residential","units_served":23,"est_residents_served":76,"avg_daily_demand_m3":9.3,"nominal_bore_mm":100,"pe_outside_diameter_mm":"110/125","peak_flow_lps":0.67,"peak_velocity_mps":0.09,"sizing_basis":"Uisce Éireann IW-CDS-5020-03 Rev 2 (2020) typical main size table (23 dwellings → 80 mm); raised to 100 mm public-main minimum (§3.5.26)"}},{"type":"Feature","geometry":{"type":"LineString","coordinates":[[-6.46966,53.43635],[-6.46979,53.43639],[-6.46994,53.43641],[-6.47008,53.43642],[-6.47023,53.43641]]},"properties":{"edge_id":"497394755-497394758-0","order":1,"length_m":39.5,"serves_app_ids":["MCC-2460805","MCC-2660001","MCC-2660607"],"street_name":null,"highway":"secondary","units_served":789,"est_residents_served":2493,"avg_daily_demand_m3":319.5,"nominal_bore_mm":250,"pe_outside_diameter_mm":null,"peak_flow_lps":23.12,"peak_velocity_mps":0.47,"sizing_basis":"> 700 dwellings, beyond the Uisce Éireann IW-CDS-5020-03 Rev 2 (2020) table: smallest standard bore keeping peak velocity ≤ 0.9 m/s (hydraulic model required in practice)"}},{"type":"Feature","geometry":{"type":"LineString","coordinates":[[-6.47023,53.43641],[-6.47056,53.43633],[-6.47097,53.43621],[-6.47142,53.43607],[-6.47178,53.43593],[-6.47209,53.4358],[-6.47236,53.43567],[-6.47271,53.43548],[-6.47304,53.43528],[-6.47332,53.4351],[-6.47358,53.43494]]},"properties":{"edge_id":"430267196-497394755-0","order":2,"length_m":278.9,"serves_app_ids":["MCC-2460805","MCC-2660001","MCC-2660607"],"street_name":"Dunboyne Bypass","highway":"secondary","units_served":789,"est_residents_served":2493,"avg_daily_demand_m3":319.5,"nominal_bore_mm":250,"pe_outside_diameter_mm":null,"peak_flow_lps":23.12,"peak_velocity_mps":0.47,"sizing_basis":"> 700 dwellings, beyond the Uisce Éireann IW-CDS-5020-03 Rev 2 (2020) table: smallest standard bore keeping peak velocity ≤ 0.9 m/s (hydraulic model required in practice)"}},{"type":"Feature","geometry":{"type":"LineString","coordinates":[[-6.47358,53.43494],[-6.47351,53.4349],[-6.47345,53.43485],[-6.47342,53.43479],[-6.47341,53.43476],[-6.47341,53.43473],[-6.47342,53.43468],[-6.47346,53.43462],[-6.47352,53.43457],[-6.4736,53.43453],[-6.47371,53.43451],[-6.47382,53.4345],[-6.47393,53.43451],[-6.47403,53.43453]]},"properties":{"edge_id":"430267171-430267196-0","order":3,"length_m":82.4,"serves_app_ids":["MCC-2460805","MCC-2660001","MCC-2660607"],"street_name":null,"highway":"secondary","units_served":789,"est_residents_served":2493,"avg_daily_demand_m3":319.5,"nominal_bore_mm":250,"pe_outside_diameter_mm":null,"peak_flow_lps":23.12,"peak_velocity_mps":0.47,"sizing_basis":"> 700 dwellings, beyond the Uisce Éireann IW-CDS-5020-03 Rev 2 (2020) table: smallest standard bore keeping peak velocity ≤ 0.9 m/s (hydraulic model required in practice)"}}]}