{"type":"FeatureCollection","features":[{"type":"Feature","geometry":{"type":"LineString","coordinates":[[-6.24379,53.29911],[-6.24318,53.29941]]},"properties":{"edge_id":"X-DLRCC-PC/2/2024-0","order":0,"length_m":63.5,"serves_app_ids":["DLRCC-PC/2/2024"],"units_served":934,"nominal_bore_mm":250,"est_cost_eur":57105,"street_name":null}},{"type":"Feature","geometry":{"type":"LineString","coordinates":[[-6.24318,53.29941],[-6.24239,53.29946]]},"properties":{"edge_id":"X-DLRCC-PC/2/2024-1","order":1,"length_m":63.5,"serves_app_ids":["DLRCC-PC/2/2024"],"units_served":934,"nominal_bore_mm":250,"est_cost_eur":57105,"street_name":null}},{"type":"Feature","geometry":{"type":"LineString","coordinates":[[-6.47374,53.33834],[-6.47302,53.33851]]},"properties":{"edge_id":"X-SDCC-SDZ25A/0013W-0","order":0,"length_m":61.3,"serves_app_ids":["SDCC-SDZ25A/0013W"],"units_served":886,"nominal_bore_mm":250,"est_cost_eur":55170,"street_name":null}},{"type":"Feature","geometry":{"type":"LineString","coordinates":[[-6.47302,53.33851],[-6.47227,53.33841]]},"properties":{"edge_id":"X-SDCC-SDZ25A/0013W-1","order":1,"length_m":61.3,"serves_app_ids":["SDCC-SDZ25A/0013W"],"units_served":886,"nominal_bore_mm":250,"est_cost_eur":55170,"street_name":null}},{"type":"Feature","geometry":{"type":"LineString","coordinates":[[-6.46564,53.41949],[-6.46432,53.41994]]},"properties":{"edge_id":"X-MCC-2460709-0","order":0,"length_m":121.0,"serves_app_ids":["MCC-2460709"],"units_served":853,"nominal_bore_mm":250,"est_cost_eur":108855,"street_name":null}},{"type":"Feature","geometry":{"type":"LineString","coordinates":[[-6.46432,53.41994],[-6.46281,53.41989]]},"properties":{"edge_id":"X-MCC-2460709-1","order":1,"length_m":121.0,"serves_app_ids":["MCC-2460709"],"units_served":853,"nominal_bore_mm":250,"est_cost_eur":108855,"street_name":null}},{"type":"Feature","geometry":{"type":"LineString","coordinates":[[-6.42533,53.33221],[-6.42587,53.33212]]},"properties":{"edge_id":"X-SDCC-SDZ24A/0029W-0","order":0,"length_m":44.6,"serves_app_ids":["SDCC-SDZ24A/0029W"],"units_served":660,"nominal_bore_mm":200,"est_cost_eur":31255,"street_name":null}},{"type":"Feature","geometry":{"type":"LineString","coordinates":[[-6.42587,53.33212],[-6.4264,53.33222]]},"properties":{"edge_id":"X-SDCC-SDZ24A/0029W-1","order":1,"length_m":44.6,"serves_app_ids":["SDCC-SDZ24A/0029W"],"units_served":660,"nominal_bore_mm":200,"est_cost_eur":31255,"street_name":null}},{"type":"Feature","geometry":{"type":"LineString","coordinates":[[-6.42677,53.27845],[-6.4277,53.27776]]},"properties":{"edge_id":"X-SDCC-LRD25A/0012W-0","order":0,"length_m":118.2,"serves_app_ids":["SDCC-LRD25A/0012W"],"units_served":611,"nominal_bore_mm":200,"est_cost_eur":82775,"street_name":null}},{"type":"Feature","geometry":{"type":"LineString","coordinates":[[-6.4277,53.27776],[-6.42912,53.27749]]},"properties":{"edge_id":"X-SDCC-LRD25A/0012W-1","order":1,"length_m":118.2,"serves_app_ids":["SDCC-LRD25A/0012W"],"units_served":611,"nominal_bore_mm":200,"est_cost_eur":82775,"street_name":null}},{"type":"Feature","geometry":{"type":"LineString","coordinates":[[-6.33689,53.31381],[-6.33724,53.31397]]},"properties":{"edge_id":"X-SDCC-LRD25A/0005W-0","order":0,"length_m":35.2,"serves_app_ids":["SDCC-LRD25A/0005W"],"units_served":588,"nominal_bore_mm":200,"est_cost_eur":24675,"street_name":null}},{"type":"Feature","geometry":{"type":"LineString","coordinates":[[-6.33724,53.31397],[-6.33738,53.31422]]},"properties":{"edge_id":"X-SDCC-LRD25A/0005W-1","order":1,"length_m":35.2,"serves_app_ids":["SDCC-LRD25A/0005W"],"units_served":588,"nominal_bore_mm":200,"est_cost_eur":24675,"street_name":null}},{"type":"Feature","geometry":{"type":"LineString","coordinates":[[-6.22994,53.34771],[-6.23033,53.34767]]},"properties":{"edge_id":"X-DCC-DSDZ4146/24-0","order":0,"length_m":31.8,"serves_app_ids":["DCC-DSDZ4146/24"],"units_served":550,"nominal_bore_mm":200,"est_cost_eur":22225,"street_name":null}},{"type":"Feature","geometry":{"type":"LineString","coordinates":[[-6.23033,53.34767],[-6.2307,53.34776]]},"properties":{"edge_id":"X-DCC-DSDZ4146/24-1","order":1,"length_m":31.8,"serves_app_ids":["DCC-DSDZ4146/24"],"units_served":550,"nominal_bore_mm":200,"est_cost_eur":22225,"street_name":null}},{"type":"Feature","geometry":{"type":"LineString","coordinates":[[-6.34878,53.26819],[-6.34964,53.26763]]},"properties":{"edge_id":"X-SDCC-LRD24A/0007-0","order":0,"length_m":101.2,"serves_app_ids":["SDCC-LRD24A/0007"],"units_served":523,"nominal_bore_mm":200,"est_cost_eur":70805,"street_name":null}},{"type":"Feature","geometry":{"type":"LineString","coordinates":[[-6.34964,53.26763],[-6.35087,53.26745]]},"properties":{"edge_id":"X-SDCC-LRD24A/0007-1","order":1,"length_m":101.2,"serves_app_ids":["SDCC-LRD24A/0007"],"units_served":523,"nominal_bore_mm":200,"est_cost_eur":70805,"street_name":null}},{"type":"Feature","geometry":{"type":"LineString","coordinates":[[-6.46485,53.41281],[-6.46243,53.41252]]},"properties":{"edge_id":"X-MCC-2560854-0","order":0,"length_m":196.6,"serves_app_ids":["MCC-2560854"],"units_served":517,"nominal_bore_mm":200,"est_cost_eur":137620,"street_name":null}},{"type":"Feature","geometry":{"type":"LineString","coordinates":[[-6.46243,53.41252],[-6.46068,53.41148]]},"properties":{"edge_id":"X-MCC-2560854-1","order":1,"length_m":196.6,"serves_app_ids":["MCC-2560854"],"units_served":517,"nominal_bore_mm":200,"est_cost_eur":137620,"street_name":null}},{"type":"Feature","geometry":{"type":"LineString","coordinates":[[-6.21381,53.33942],[-6.21299,53.33913]]},"properties":{"edge_id":"X-DCC-WEBPWSDZ2539/26-0","order":0,"length_m":75.8,"serves_app_ids":["DCC-WEBPWSDZ2539/26"],"units_served":510,"nominal_bore_mm":200,"est_cost_eur":53060,"street_name":null}},{"type":"Feature","geometry":{"type":"LineString","coordinates":[[-6.21299,53.33913],[-6.21258,53.33862]]},"properties":{"edge_id":"X-DCC-WEBPWSDZ2539/26-1","order":1,"length_m":75.8,"serves_app_ids":["DCC-WEBPWSDZ2539/26"],"units_served":510,"nominal_bore_mm":200,"est_cost_eur":53060,"street_name":null}},{"type":"Feature","geometry":{"type":"LineString","coordinates":[[-6.32028,53.27081],[-6.32029,53.27051]]},"properties":{"edge_id":"X-SDCC-LRD25A/0003W-0","order":0,"length_m":40.3,"serves_app_ids":["SDCC-LRD25A/0003W"],"units_served":502,"nominal_bore_mm":200,"est_cost_eur":28209,"street_name":null}},{"type":"Feature","geometry":{"type":"LineString","coordinates":[[-6.32029,53.27051],[-6.32058,53.27026]]},"properties":{"edge_id":"X-SDCC-LRD25A/0003W-1","order":1,"length_m":40.3,"serves_app_ids":["SDCC-LRD25A/0003W"],"units_served":502,"nominal_bore_mm":200,"est_cost_eur":28209,"street_name":null}},{"type":"Feature","geometry":{"type":"LineString","coordinates":[[-6.35635,53.2928],[-6.35703,53.29283]]},"properties":{"edge_id":"X-SDCC-SHD3ABP-306705-20/EP-0","order":0,"length_m":54.6,"serves_app_ids":["SDCC-SHD3ABP-306705-20/EP"],"units_served":502,"nominal_bore_mm":200,"est_cost_eur":38220,"street_name":null}},{"type":"Feature","geometry":{"type":"LineString","coordinates":[[-6.35703,53.29283],[-6.35757,53.29308]]},"properties":{"edge_id":"X-SDCC-SHD3ABP-306705-20/EP-1","order":1,"length_m":54.6,"serves_app_ids":["SDCC-SHD3ABP-306705-20/EP"],"units_served":502,"nominal_bore_mm":200,"est_cost_eur":38220,"street_name":null}},{"type":"Feature","geometry":{"type":"LineString","coordinates":[[-6.43097,53.33342],[-6.4299,53.33351]]},"properties":{"edge_id":"X-SDCC-SDZ25A/0012W-0","order":0,"length_m":86.0,"serves_app_ids":["SDCC-SDZ25A/0012W"],"units_served":494,"nominal_bore_mm":200,"est_cost_eur":60235,"street_name":null}},{"type":"Feature","geometry":{"type":"LineString","coordinates":[[-6.4299,53.33351],[-6.42893,53.33323]]},"properties":{"edge_id":"X-SDCC-SDZ25A/0012W-1","order":1,"length_m":86.0,"serves_app_ids":["SDCC-SDZ25A/0012W"],"units_served":494,"nominal_bore_mm":200,"est_cost_eur":60235,"street_name":null}},{"type":"Feature","geometry":{"type":"LineString","coordinates":[[-6.34525,53.32353],[-6.34509,53.32326]]},"properties":{"edge_id":"X-SDCC-LRD25A/0002W-0","order":0,"length_m":38.5,"serves_app_ids":["SDCC-LRD25A/0002W"],"units_served":436,"nominal_bore_mm":200,"est_cost_eur":26915,"street_name":null}},{"type":"Feature","geometry":{"type":"LineString","coordinates":[[-6.34509,53.32326],[-6.34521,53.32298]]},"properties":{"edge_id":"X-SDCC-LRD25A/0002W-1","order":1,"length_m":38.5,"serves_app_ids":["SDCC-LRD25A/0002W"],"units_served":436,"nominal_bore_mm":200,"est_cost_eur":26915,"street_name":null}},{"type":"Feature","geometry":{"type":"LineString","coordinates":[[-6.33965,53.32754],[-6.33871,53.32692]]},"properties":{"edge_id":"X-DCC-WEB5179/25-0","order":0,"length_m":111.8,"serves_app_ids":["DCC-WEB5179/25"],"units_served":416,"nominal_bore_mm":200,"est_cost_eur":78295,"street_name":null}},{"type":"Feature","geometry":{"type":"LineString","coordinates":[[-6.33871,53.32692],[-6.33849,53.32609]]},"properties":{"edge_id":"X-DCC-WEB5179/25-1","order":1,"length_m":111.8,"serves_app_ids":["DCC-WEB5179/25"],"units_served":416,"nominal_bore_mm":200,"est_cost_eur":78295,"street_name":null}},{"type":"Feature","geometry":{"type":"LineString","coordinates":[[-6.47949,53.43144],[-6.47813,53.43249]]},"properties":{"edge_id":"X-MCC-2660001-0","order":0,"length_m":176.9,"serves_app_ids":["MCC-2660001"],"units_served":356,"nominal_bore_mm":200,"est_cost_eur":123830,"street_name":null}},{"type":"Feature","geometry":{"type":"LineString","coordinates":[[-6.47813,53.43249],[-6.47602,53.43292]]},"properties":{"edge_id":"X-MCC-2660001-1","order":1,"length_m":176.9,"serves_app_ids":["MCC-2660001"],"units_served":356,"nominal_bore_mm":200,"est_cost_eur":123830,"street_name":null}},{"type":"Feature","geometry":{"type":"LineString","coordinates":[[-6.47136,53.34098],[-6.47091,53.34104]]},"properties":{"edge_id":"X-SDCC-SDZ24A/0011-0","order":0,"length_m":36.3,"serves_app_ids":["SDCC-SDZ24A/0011"],"units_served":350,"nominal_bore_mm":200,"est_cost_eur":25409,"street_name":null}},{"type":"Feature","geometry":{"type":"LineString","coordinates":[[-6.47091,53.34104],[-6.47048,53.34095]]},"properties":{"edge_id":"X-SDCC-SDZ24A/0011-1","order":1,"length_m":36.3,"serves_app_ids":["SDCC-SDZ24A/0011"],"units_served":350,"nominal_bore_mm":200,"est_cost_eur":25409,"street_name":null}},{"type":"Feature","geometry":{"type":"LineString","coordinates":[[-6.46559,53.41881],[-6.46441,53.41909]]},"properties":{"edge_id":"X-MCC-2660481-0","order":0,"length_m":101.0,"serves_app_ids":["MCC-2660481"],"units_served":314,"nominal_bore_mm":200,"est_cost_eur":70700,"street_name":null}},{"type":"Feature","geometry":{"type":"LineString","coordinates":[[-6.46441,53.41909],[-6.46317,53.41894]]},"properties":{"edge_id":"X-MCC-2660481-1","order":1,"length_m":101.0,"serves_app_ids":["MCC-2660481"],"units_served":314,"nominal_bore_mm":200,"est_cost_eur":70700,"street_name":null}},{"type":"Feature","geometry":{"type":"LineString","coordinates":[[-6.14806,53.24947],[-6.14832,53.24921]]},"properties":{"edge_id":"X-DLRCC-DZ26A/0148/WEB-0","order":0,"length_m":39.7,"serves_app_ids":["DLRCC-DZ26A/0148/WEB"],"units_served":311,"nominal_bore_mm":200,"est_cost_eur":27790,"street_name":null}},{"type":"Feature","geometry":{"type":"LineString","coordinates":[[-6.14832,53.24921],[-6.14876,53.24908]]},"properties":{"edge_id":"X-DLRCC-DZ26A/0148/WEB-1","order":1,"length_m":39.7,"serves_app_ids":["DLRCC-DZ26A/0148/WEB"],"units_served":311,"nominal_bore_mm":200,"est_cost_eur":27790,"street_name":null}},{"type":"Feature","geometry":{"type":"LineString","coordinates":[[-6.47937,53.43133],[-6.47758,53.4326]]},"properties":{"edge_id":"X-MCC-2460805-0","order":0,"length_m":220.4,"serves_app_ids":["MCC-2460805"],"units_served":309,"nominal_bore_mm":200,"est_cost_eur":154315,"street_name":null}},{"type":"Feature","geometry":{"type":"LineString","coordinates":[[-6.47758,53.4326],[-6.47492,53.43306]]},"properties":{"edge_id":"X-MCC-2460805-1","order":1,"length_m":220.4,"serves_app_ids":["MCC-2460805"],"units_served":309,"nominal_bore_mm":200,"est_cost_eur":154315,"street_name":null}},{"type":"Feature","geometry":{"type":"LineString","coordinates":[[-6.48467,53.37498],[-6.48583,53.37498]]},"properties":{"edge_id":"X-KCC-2660746-0","order":0,"length_m":92.0,"serves_app_ids":["KCC-2660746"],"units_served":272,"nominal_bore_mm":150,"est_cost_eur":50572,"street_name":null}},{"type":"Feature","geometry":{"type":"LineString","coordinates":[[-6.48583,53.37498],[-6.48679,53.37536]]},"properties":{"edge_id":"X-KCC-2660746-1","order":1,"length_m":92.0,"serves_app_ids":["KCC-2660746"],"units_served":272,"nominal_bore_mm":150,"est_cost_eur":50572,"street_name":null}},{"type":"Feature","geometry":{"type":"LineString","coordinates":[[-6.48311,53.42554],[-6.48348,53.42577]]},"properties":{"edge_id":"X-MCC-2661080-0","order":0,"length_m":42.5,"serves_app_ids":["MCC-2661080"],"units_served":248,"nominal_bore_mm":150,"est_cost_eur":23375,"street_name":null}},{"type":"Feature","geometry":{"type":"LineString","coordinates":[[-6.48348,53.42577],[-6.48358,53.42608]]},"properties":{"edge_id":"X-MCC-2661080-1","order":1,"length_m":42.5,"serves_app_ids":["MCC-2661080"],"units_served":248,"nominal_bore_mm":150,"est_cost_eur":23375,"street_name":null}},{"type":"Feature","geometry":{"type":"LineString","coordinates":[[-6.15251,53.25846],[-6.15183,53.25853]]},"properties":{"edge_id":"X-DLRCC-ABP30585919/E-0","order":0,"length_m":55.2,"serves_app_ids":["DLRCC-ABP30585919/E"],"units_served":234,"nominal_bore_mm":150,"est_cost_eur":30360,"street_name":null}},{"type":"Feature","geometry":{"type":"LineString","coordinates":[[-6.15183,53.25853],[-6.1512,53.25836]]},"properties":{"edge_id":"X-DLRCC-ABP30585919/E-1","order":1,"length_m":55.2,"serves_app_ids":["DLRCC-ABP30585919/E"],"units_served":234,"nominal_bore_mm":150,"est_cost_eur":30360,"street_name":null}},{"type":"Feature","geometry":{"type":"LineString","coordinates":[[-6.40752,53.33603],[-6.40684,53.33624]]},"properties":{"edge_id":"X-SDCC-SDZ25A/0019W-0","order":0,"length_m":60.9,"serves_app_ids":["SDCC-SDZ25A/0019W"],"units_served":233,"nominal_bore_mm":150,"est_cost_eur":33467,"street_name":null}},{"type":"Feature","geometry":{"type":"LineString","coordinates":[[-6.40684,53.33624],[-6.40608,53.33618]]},"properties":{"edge_id":"X-SDCC-SDZ25A/0019W-1","order":1,"length_m":60.9,"serves_app_ids":["SDCC-SDZ25A/0019W"],"units_served":233,"nominal_bore_mm":150,"est_cost_eur":33467,"street_name":null}},{"type":"Feature","geometry":{"type":"LineString","coordinates":[[-6.46754,53.33706],[-6.46801,53.337]]},"properties":{"edge_id":"X-SDCC-SDZ25A/0050W-0","order":0,"length_m":38.8,"serves_app_ids":["SDCC-SDZ25A/0050W"],"units_served":214,"nominal_bore_mm":150,"est_cost_eur":21312,"street_name":null}},{"type":"Feature","geometry":{"type":"LineString","coordinates":[[-6.46801,53.337],[-6.46846,53.33711]]},"properties":{"edge_id":"X-SDCC-SDZ25A/0050W-1","order":1,"length_m":38.8,"serves_app_ids":["SDCC-SDZ25A/0050W"],"units_served":214,"nominal_bore_mm":150,"est_cost_eur":21312,"street_name":null}},{"type":"Feature","geometry":{"type":"LineString","coordinates":[[-6.14535,53.41429],[-6.14429,53.41423]]},"properties":{"edge_id":"X-FCC-LRD0002/S3-0","order":0,"length_m":84.5,"serves_app_ids":["FCC-LRD0002/S3"],"units_served":195,"nominal_bore_mm":150,"est_cost_eur":46447,"street_name":null}},{"type":"Feature","geometry":{"type":"LineString","coordinates":[[-6.14429,53.41423],[-6.14347,53.41383]]},"properties":{"edge_id":"X-FCC-LRD0002/S3-1","order":1,"length_m":84.5,"serves_app_ids":["FCC-LRD0002/S3"],"units_served":195,"nominal_bore_mm":150,"est_cost_eur":46447,"street_name":null}},{"type":"Feature","geometry":{"type":"LineString","coordinates":[[-6.31081,53.29809],[-6.31144,53.29813]]},"properties":{"edge_id":"X-SDCC-LRD25A/0013W-0","order":0,"length_m":50.9,"serves_app_ids":["SDCC-LRD25A/0013W"],"units_served":171,"nominal_bore_mm":150,"est_cost_eur":27967,"street_name":null}},{"type":"Feature","geometry":{"type":"LineString","coordinates":[[-6.31144,53.29813],[-6.31193,53.29838]]},"properties":{"edge_id":"X-SDCC-LRD25A/0013W-1","order":1,"length_m":50.9,"serves_app_ids":["SDCC-LRD25A/0013W"],"units_served":171,"nominal_bore_mm":150,"est_cost_eur":27967,"street_name":null}},{"type":"Feature","geometry":{"type":"LineString","coordinates":[[-6.46986,53.42343],[-6.46978,53.424]]},"properties":{"edge_id":"X-MCC-2460625-0","order":0,"length_m":76.6,"serves_app_ids":["MCC-2460625"],"units_served":171,"nominal_bore_mm":150,"est_cost_eur":42130,"street_name":null}},{"type":"Feature","geometry":{"type":"LineString","coordinates":[[-6.46978,53.424],[-6.46918,53.42445]]},"properties":{"edge_id":"X-MCC-2460625-1","order":1,"length_m":76.6,"serves_app_ids":["MCC-2460625"],"units_served":171,"nominal_bore_mm":150,"est_cost_eur":42130,"street_name":null}},{"type":"Feature","geometry":{"type":"LineString","coordinates":[[-6.37113,53.29504],[-6.37127,53.29533]]},"properties":{"edge_id":"X-SDCC-SHD3ABP-309916-21/EP-0","order":0,"length_m":40.2,"serves_app_ids":["SDCC-SHD3ABP-309916-21/EP"],"units_served":170,"nominal_bore_mm":150,"est_cost_eur":22110,"street_name":null}},{"type":"Feature","geometry":{"type":"LineString","coordinates":[[-6.37127,53.29533],[-6.37112,53.29562]]},"properties":{"edge_id":"X-SDCC-SHD3ABP-309916-21/EP-1","order":1,"length_m":40.2,"serves_app_ids":["SDCC-SHD3ABP-309916-21/EP"],"units_served":170,"nominal_bore_mm":150,"est_cost_eur":22110,"street_name":null}}]}