{"type":"FeatureCollection","features":[{"type":"Feature","geometry":{"type":"LineString","coordinates":[[-6.4831,53.42531],[-6.48329,53.42526],[-6.48345,53.4252],[-6.48362,53.42512],[-6.4838,53.42503],[-6.48388,53.42499],[-6.48395,53.42496],[-6.48401,53.42492],[-6.48409,53.42488],[-6.48416,53.42484],[-6.48428,53.42472],[-6.4844,53.42462],[-6.48451,53.4245],[-6.48452,53.42449],[-6.4846,53.4244],[-6.48467,53.42431],[-6.48487,53.42405],[-6.48491,53.42401],[-6.48498,53.42392],[-6.485,53.4239],[-6.48792,53.42454],[-6.48756,53.42446],[-6.4874,53.42443],[-6.48699,53.42435],[-6.48675,53.42429],[-6.4865,53.42425],[-6.48626,53.42419],[-6.48605,53.42414],[-6.4859,53.4241],[-6.48557,53.42401],[-6.48551,53.424],[-6.48524,53.42393],[-6.48813,53.42481],[-6.48802,53.42475],[-6.48796,53.4247],[-6.48792,53.42463],[-6.47403,53.43453],[-6.47416,53.43442],[-6.47454,53.43403],[-6.47508,53.43346],[-6.47526,53.43328],[-6.47565,53.43289],[-6.47671,53.43194],[-6.47759,53.4312],[-6.47837,53.4306],[-6.47852,53.43048],[-6.47939,53.42985],[-6.48001,53.42943],[-6.4808,53.42891],[-6.4817,53.42836],[-6.48274,53.42776],[-6.48311,53.42756],[-6.48391,53.42711],[-6.48578,53.4261],[-6.48676,53.42556],[-6.48747,53.42518],[-6.48798,53.4249],[-6.47358,53.43494],[-6.47351,53.4349],[-6.47345,53.43485],[-6.47342,53.43479],[-6.47341,53.43476],[-6.47341,53.43473],[-6.47342,53.43468],[-6.47346,53.43462],[-6.47352,53.43457],[-6.4736,53.43453],[-6.47371,53.43451],[-6.47382,53.4345],[-6.47393,53.43451],[-6.47023,53.43641],[-6.47056,53.43633],[-6.47097,53.43621],[-6.47142,53.43607],[-6.47178,53.43593],[-6.47209,53.4358],[-6.47236,53.43567],[-6.47271,53.43548],[-6.47304,53.43528],[-6.47332,53.4351],[-6.46966,53.43635],[-6.46979,53.43639],[-6.46994,53.43641],[-6.47008,53.43642],[-6.46886,53.43598],[-6.46905,53.43601],[-6.46921,53.43604],[-6.46933,53.4361],[-6.46947,53.43618],[-6.46955,53.43625],[-6.46886,53.43598]]},"properties":{"route_id":"PR-01","name":"PR-01 MCC-2661080 ↔ Unnamed station","length_km":6.35,"round_trip_min":48,"headway_min":15,"buses_required":4,"serves_app_ids":["MCC-2661080"],"peak_demand":28,"to_station":"Unnamed station"}},{"type":"Feature","geometry":{"type":"LineString","coordinates":[[-6.4737,53.34631],[-6.47387,53.34631],[-6.47439,53.34632],[-6.47488,53.34632],[-6.475,53.34632],[-6.47517,53.34631],[-6.47535,53.3463],[-6.4737,53.34631],[-6.47371,53.34623],[-6.47373,53.34556],[-6.47374,53.34549],[-6.47374,53.34539],[-6.47376,53.3449],[-6.47375,53.34484],[-6.47374,53.34477],[-6.47371,53.34468],[-6.4737,53.34465],[-6.47369,53.3446],[-6.47369,53.34454],[-6.47369,53.3442],[-6.4737,53.34415],[-6.47371,53.34404],[-6.47372,53.34395],[-6.47372,53.34385],[-6.47372,53.34374],[-6.47372,53.34337],[-6.47372,53.34296],[-6.47372,53.34287],[-6.4717,53.34268],[-6.47266,53.34272],[-6.47349,53.34276],[-6.47356,53.34276],[-6.4717,53.34268],[-6.47152,53.34268],[-6.47133,53.34265],[-6.47114,53.34262],[-6.47097,53.34259],[-6.47076,53.34253],[-6.47062,53.34247],[-6.47048,53.34241],[-6.47033,53.34234],[-6.4703,53.34232],[-6.47014,53.34222],[-6.47008,53.34218],[-6.46994,53.3421],[-6.4698,53.34203],[-6.46964,53.34196],[-6.46949,53.34191],[-6.46933,53.34187],[-6.46921,53.34184],[-6.46946,53.33969],[-6.46943,53.33987],[-6.46927,53.34129],[-6.46925,53.3414],[-6.46923,53.34147],[-6.46919,53.34158],[-6.46914,53.34169],[-6.46912,53.34174],[-6.46964,53.33817],[-6.46963,53.33832],[-6.46949,53.33951],[-6.46949,53.33954],[-6.47092,53.33738],[-6.47082,53.33822],[-6.46991,53.33818],[-6.4699,53.33818],[-6.4698,53.33818],[-6.47092,53.33738],[-6.47052,53.33736],[-6.47045,53.33733],[-6.47042,53.33728],[-6.47053,53.33636]]},"properties":{"route_id":"PR-02","name":"PR-02 SDCC-SDZ25A/0051W ↔ Unnamed station","length_km":2.88,"round_trip_min":27,"headway_min":15,"buses_required":2,"serves_app_ids":["SDCC-SDZ25A/0051W"],"peak_demand":21,"to_station":"Unnamed station"}},{"type":"Feature","geometry":{"type":"LineString","coordinates":[[-6.47753,53.34632],[-6.47793,53.34621],[-6.47753,53.34632],[-6.47601,53.34615],[-6.47607,53.34624],[-6.47633,53.34658],[-6.47638,53.3466],[-6.47643,53.3466],[-6.47601,53.34615],[-6.47576,53.34622],[-6.4756,53.34626],[-6.47553,53.34627],[-6.4737,53.34631],[-6.47387,53.34631],[-6.47439,53.34632],[-6.47488,53.34632],[-6.475,53.34632],[-6.47517,53.34631],[-6.47535,53.3463],[-6.4737,53.34631],[-6.47371,53.34623],[-6.47373,53.34556],[-6.47374,53.34549],[-6.47374,53.34539],[-6.47376,53.3449],[-6.47375,53.34484],[-6.47374,53.34477],[-6.47371,53.34468],[-6.4737,53.34465],[-6.47369,53.3446],[-6.47369,53.34454],[-6.47369,53.3442],[-6.4737,53.34415],[-6.47371,53.34404],[-6.47372,53.34395],[-6.47372,53.34385],[-6.47372,53.34374],[-6.47372,53.34337],[-6.47372,53.34296],[-6.47372,53.34287],[-6.4717,53.34268],[-6.47266,53.34272],[-6.47349,53.34276],[-6.47356,53.34276],[-6.4717,53.34268],[-6.47152,53.34268],[-6.47133,53.34265],[-6.47114,53.34262],[-6.47097,53.34259],[-6.47076,53.34253],[-6.47062,53.34247],[-6.47048,53.34241],[-6.47033,53.34234],[-6.4703,53.34232],[-6.47014,53.34222],[-6.47008,53.34218],[-6.46994,53.3421],[-6.4698,53.34203],[-6.46964,53.34196],[-6.46949,53.34191],[-6.46933,53.34187],[-6.46921,53.34184],[-6.46946,53.33969],[-6.46943,53.33987],[-6.46927,53.34129],[-6.46925,53.3414],[-6.46923,53.34147],[-6.46919,53.34158],[-6.46914,53.34169],[-6.46912,53.34174],[-6.46964,53.33817],[-6.46963,53.33832],[-6.46949,53.33951],[-6.46949,53.33954],[-6.47092,53.33738],[-6.47082,53.33822],[-6.46991,53.33818],[-6.4699,53.33818],[-6.4698,53.33818],[-6.47092,53.33738],[-6.47052,53.33736],[-6.47045,53.33733],[-6.47042,53.33728],[-6.47053,53.33636]]},"properties":{"route_id":"PR-03","name":"PR-03 SDCC-SDZ24A/0015W ↔ Unnamed station","length_km":3.32,"round_trip_min":30,"headway_min":15,"buses_required":2,"serves_app_ids":["SDCC-SDZ24A/0015W"],"peak_demand":19,"to_station":"Unnamed station"}}]}