{"type":"FeatureCollection","features":[{"type":"Feature","geometry":{"type":"Polygon","coordinates":[[[-6.2373076514488925,53.34912478273251],[-6.236707176963532,53.34911590993421],[-6.236692346029024,53.349475216448575],[-6.237292825558558,53.34948408936234],[-6.2373076514488925,53.34912478273251]]]},"properties":{"app_id":"MOCK-01","num_units":420,"dev_type":"residential","status":"granted","received_date":"2025-03-01","description":"MOCK: 420 apartments, Spencer Dock Block C","footprint_source":"buffered_point","centroid":[-6.237,53.3493],"water":{"connected":true,"distance_to_network_m":0.0,"route_length_m":0,"est_cost_eur":0},"transport":{"class":"served","nearest_stop_m":180,"nearest_frequent_stop_m":56,"nearest_rail_name":"Spencer Dock","nearest_rail_m":56,"residents":1155,"peak_pt_trips":47.7,"proposed_route_id":null},"schools":{"primary_pupils":138.6,"secondary_pupils":96.2,"nearby_primary":["MOCK-P01","MOCK-P02","MOCK-P04","MOCK-P05"],"nearby_secondary":["MOCK-S01","MOCK-S02","MOCK-S03","MOCK-S04"],"pressure_flag":true},"scores":{"water":0.0,"transport":3.5,"schools":67.6,"overall":18.1}}},{"type":"Feature","geometry":{"type":"Polygon","coordinates":[[[-6.230807668239164,53.347824799599344],[-6.230207214122788,53.34781589424669],[-6.23019232923898,53.34817519958155],[-6.230792788399068,53.348184105050095],[-6.230807668239164,53.347824799599344]]]},"properties":{"app_id":"MOCK-02","num_units":310,"dev_type":"residential","status":"pending","received_date":"2025-03-01","description":"MOCK: 310 build-to-rent units, North Wall Quay","footprint_source":"buffered_point","centroid":[-6.2305,53.348],"water":{"connected":true,"distance_to_network_m":0.0,"route_length_m":0,"est_cost_eur":0},"transport":{"class":"served","nearest_stop_m":114,"nearest_frequent_stop_m":114,"nearest_rail_name":"The Point","nearest_rail_m":114,"residents":852,"peak_pt_trips":35.2,"proposed_route_id":"MOCK-R2"},"schools":{"primary_pupils":102.3,"secondary_pupils":71.0,"nearby_primary":["MOCK-P01","MOCK-P02","MOCK-P04","MOCK-P05"],"nearby_secondary":["MOCK-S01","MOCK-S02","MOCK-S03","MOCK-S04"],"pressure_flag":true},"scores":{"water":0.0,"transport":7.1,"schools":49.9,"overall":15.0}}},{"type":"Feature","geometry":{"type":"Polygon","coordinates":[[[-6.226807750093763,53.35682481083695],[-6.226207170785168,53.3568158843304],[-6.226192247383046,53.357175188343575],[-6.226792831738024,53.35718411496631],[-6.226807750093763,53.35682481083695]]]},"properties":{"app_id":"MOCK-03","num_units":180,"dev_type":"residential","status":"granted","received_date":"2025-03-01","description":"MOCK: 180 apartments, East Wall Road","footprint_source":"buffered_point","centroid":[-6.2265,53.357],"water":{"connected":false,"distance_to_network_m":163.8,"route_length_m":1038.0,"est_cost_eur":518995},"transport":{"class":"unserved","nearest_stop_m":705,"nearest_frequent_stop_m":705,"nearest_rail_name":"The Point","nearest_rail_m":961,"residents":495,"peak_pt_trips":20.4,"proposed_route_id":"MOCK-R2"},"schools":{"primary_pupils":59.4,"secondary_pupils":41.2,"nearby_primary":["MOCK-P01","MOCK-P02","MOCK-P04","MOCK-P05"],"nearby_secondary":["MOCK-S01","MOCK-S02","MOCK-S03","MOCK-S04"],"pressure_flag":false},"scores":{"water":100.0,"transport":44.1,"schools":29.0,"overall":62.7}}},{"type":"Feature","geometry":{"type":"Polygon","coordinates":[[[-6.241307654975668,53.35182477251905],[-6.24070714125733,53.35181591953923],[-6.240692342501817,53.35217522666206],[-6.241292861265187,53.35218407975711],[-6.241307654975668,53.35182477251905]]]},"properties":{"app_id":"MOCK-04","num_units":96,"dev_type":"residential","status":"granted","received_date":"2025-03-01","description":"MOCK: 96 apartments, Sheriff Street Upper","footprint_source":"buffered_point","centroid":[-6.241,53.352],"water":{"connected":true,"distance_to_network_m":0.0,"route_length_m":0,"est_cost_eur":0},"transport":{"class":"served","nearest_stop_m":469,"nearest_frequent_stop_m":366,"nearest_rail_name":"Mayor Square","nearest_rail_m":366,"residents":264,"peak_pt_trips":10.9,"proposed_route_id":null},"schools":{"primary_pupils":31.7,"secondary_pupils":22.0,"nearby_primary":["MOCK-P01","MOCK-P02","MOCK-P04","MOCK-P05"],"nearby_secondary":["MOCK-S01","MOCK-S02","MOCK-S03","MOCK-S04"],"pressure_flag":false},"scores":{"water":0.0,"transport":22.9,"schools":15.5,"overall":11.9}}},{"type":"Feature","geometry":{"type":"Polygon","coordinates":[[[-6.238807588493335,53.34132477813499],[-6.238207223102457,53.341315913769876],[-6.238192408985748,53.34167522104637],[-6.238792779418465,53.34168408552683],[-6.238807588493335,53.34132477813499]]]},"properties":{"app_id":"MOCK-05","num_units":240,"dev_type":"residential","status":"pending","received_date":"2025-03-01","description":"MOCK: 240 apartments, Grand Canal Dock","footprint_source":"buffered_point","centroid":[-6.2385,53.3415],"water":{"connected":true,"distance_to_network_m":0.0,"route_length_m":0,"est_cost_eur":0},"transport":{"class":"served","nearest_stop_m":126,"nearest_frequent_stop_m":126,"nearest_rail_name":"Grand Canal Dock","nearest_rail_m":207,"residents":660,"peak_pt_trips":27.3,"proposed_route_id":null},"schools":{"primary_pupils":79.2,"secondary_pupils":55.0,"nearby_primary":["MOCK-P01","MOCK-P02","MOCK-P03","MOCK-P04","MOCK-P05","MOCK-P06"],"nearby_secondary":["MOCK-S01","MOCK-S02","MOCK-S03","MOCK-S04"],"pressure_flag":false},"scores":{"water":0.0,"transport":7.8,"schools":23.5,"overall":8.6}}},{"type":"Feature","geometry":{"type":"Polygon","coordinates":[[[-6.219307652699071,53.33932482890101],[-6.218707321720642,53.33931586666757],[-6.2186923447804165,53.339675170279776],[-6.219292680799869,53.33968413262983],[-6.219307652699071,53.33932482890101]]]},"properties":{"app_id":"MOCK-06","num_units":600,"dev_type":"residential","status":"pending","received_date":"2025-03-01","description":"MOCK: 600 units, Ringsend / Poolbeg West","footprint_source":"buffered_point","centroid":[-6.219,53.3395],"water":{"connected":false,"distance_to_network_m":86.9,"route_length_m":268.5,"est_cost_eur":134259},"transport":{"class":"served","nearest_stop_m":87,"nearest_frequent_stop_m":87,"nearest_rail_name":"Lansdowne Road","nearest_rail_m":888,"residents":1650,"peak_pt_trips":68.1,"proposed_route_id":"MOCK-R1"},"schools":{"primary_pupils":198.0,"secondary_pupils":137.4,"nearby_primary":["MOCK-P01","MOCK-P02","MOCK-P03","MOCK-P04","MOCK-P06"],"nearby_secondary":["MOCK-S01","MOCK-S02","MOCK-S03","MOCK-S04"],"pressure_flag":true},"scores":{"water":26.9,"transport":5.4,"schools":72.7,"overall":30.8}}},{"type":"Feature","geometry":{"type":"Polygon","coordinates":[[[-6.223307600077932,53.33432481801207],[-6.22270733800339,53.33431587647403],[-6.2226923974022865,53.33467518116897],[-6.2232926645163875,53.33468412282336],[-6.223307600077932,53.33432481801207]]]},"properties":{"app_id":"MOCK-07","num_units":72,"dev_type":"residential","status":"granted","received_date":"2025-03-01","description":"MOCK: 72 houses, Irishtown","footprint_source":"buffered_point","centroid":[-6.223,53.3345],"water":{"connected":true,"distance_to_network_m":0.0,"route_length_m":0,"est_cost_eur":0},"transport":{"class":"weak","nearest_stop_m":180,"nearest_frequent_stop_m":462,"nearest_rail_name":"Lansdowne Road","nearest_rail_m":462,"residents":198,"peak_pt_trips":8.2,"proposed_route_id":"MOCK-R3"},"schools":{"primary_pupils":23.8,"secondary_pupils":16.5,"nearby_primary":["MOCK-P02","MOCK-P03","MOCK-P06"],"nearby_secondary":["MOCK-S01","MOCK-S02","MOCK-S03","MOCK-S04"],"pressure_flag":false},"scores":{"water":0.0,"transport":28.9,"schools":13.4,"overall":13.5}}},{"type":"Feature","geometry":{"type":"Polygon","coordinates":[[[-6.23130755682675,53.33282479698305],[-6.23070731321364,53.33281589585797],[-6.23069244065365,53.333175202198326],[-6.231292689305957,53.3331841034392],[-6.23130755682675,53.33282479698305]]]},"properties":{"app_id":"MOCK-08","num_units":150,"dev_type":"residential","status":"granted","received_date":"2025-03-01","description":"MOCK: 150 apartments, Shelbourne Road","footprint_source":"buffered_point","centroid":[-6.231,53.333],"water":{"connected":true,"distance_to_network_m":0.0,"route_length_m":0,"est_cost_eur":0},"transport":{"class":"served","nearest_stop_m":145,"nearest_frequent_stop_m":145,"nearest_rail_name":"Lansdowne Road","nearest_rail_m":224,"residents":412,"peak_pt_trips":17.0,"proposed_route_id":null},"schools":{"primary_pupils":49.5,"secondary_pupils":34.4,"nearby_primary":["MOCK-P02","MOCK-P03","MOCK-P06"],"nearby_secondary":["MOCK-S01","MOCK-S02","MOCK-S03","MOCK-S04"],"pressure_flag":false},"scores":{"water":0.0,"transport":9.0,"schools":27.9,"overall":10.1}}},{"type":"Feature","geometry":{"type":"Polygon","coordinates":[[[-6.2163075955384794,53.32982483590537],[-6.215707398913364,53.32981585967402],[-6.215692401942455,53.330175163275584],[-6.2162926036057,53.330184139623725],[-6.2163075955384794,53.32982483590537]]]},"properties":{"app_id":"MOCK-09","num_units":45,"dev_type":"residential","status":"pending","received_date":"2025-03-01","description":"MOCK: 45 houses, Strand Road Sandymount","footprint_source":"buffered_point","centroid":[-6.216,53.33],"water":{"connected":true,"distance_to_network_m":0.0,"route_length_m":0,"est_cost_eur":0},"transport":{"class":"weak","nearest_stop_m":130,"nearest_frequent_stop_m":423,"nearest_rail_name":"Sandymount","nearest_rail_m":423,"residents":124,"peak_pt_trips":5.1,"proposed_route_id":"MOCK-R3"},"schools":{"primary_pupils":14.9,"secondary_pupils":10.3,"nearby_primary":["MOCK-P02","MOCK-P03","MOCK-P06"],"nearby_secondary":["MOCK-S01","MOCK-S02","MOCK-S03","MOCK-S04"],"pressure_flag":false},"scores":{"water":0.0,"transport":26.5,"schools":8.4,"overall":11.4}}},{"type":"Feature","geometry":{"type":"Polygon","coordinates":[[[-6.254807640505102,53.35732473773707],[-6.254207045143628,53.35731595206199],[-6.2541923569714815,53.35767526144433],[-6.2547929573797925,53.35768404723376],[-6.254807640505102,53.35732473773707]]]},"properties":{"app_id":"MOCK-10","num_units":60,"dev_type":"residential","status":"granted","received_date":"2025-03-01","description":"MOCK: 60 apartments, Mountjoy Square","footprint_source":"buffered_point","centroid":[-6.2545,53.3575],"water":{"connected":true,"distance_to_network_m":0.0,"route_length_m":0,"est_cost_eur":0},"transport":{"class":"served","nearest_stop_m":369,"nearest_frequent_stop_m":369,"nearest_rail_name":"Connolly Luas","nearest_rail_m":783,"residents":165,"peak_pt_trips":6.8,"proposed_route_id":null},"schools":{"primary_pupils":19.8,"secondary_pupils":13.7,"nearby_primary":["MOCK-P01","MOCK-P04","MOCK-P05"],"nearby_secondary":["MOCK-S01","MOCK-S02","MOCK-S03","MOCK-S04"],"pressure_flag":false},"scores":{"water":0.0,"transport":23.1,"schools":12.4,"overall":11.2}}},{"type":"Feature","geometry":{"type":"Polygon","coordinates":[[[-6.247307572364087,53.34382475615314],[-6.246707169122493,53.34381593426634],[-6.246692425114573,53.34417524302844],[-6.247292833398851,53.34418406503005],[-6.247307572364087,53.34382475615314]]]},"properties":{"app_id":"MOCK-11","num_units":130,"dev_type":"residential","status":"granted","received_date":"2025-03-01","description":"MOCK: 130 student beds, Pearse Street","footprint_source":"buffered_point","centroid":[-6.247,53.344],"water":{"connected":true,"distance_to_network_m":0.0,"route_length_m":0,"est_cost_eur":0},"transport":{"class":"served","nearest_stop_m":43,"nearest_frequent_stop_m":43,"nearest_rail_name":"Pearse","nearest_rail_m":122,"residents":358,"peak_pt_trips":14.8,"proposed_route_id":null},"schools":{"primary_pupils":42.9,"secondary_pupils":29.8,"nearby_primary":["MOCK-P01","MOCK-P02","MOCK-P04","MOCK-P05"],"nearby_secondary":["MOCK-S01","MOCK-S02","MOCK-S03","MOCK-S04"],"pressure_flag":false},"scores":{"water":0.0,"transport":2.7,"schools":20.9,"overall":6.2}}},{"type":"Feature","geometry":{"type":"Polygon","coordinates":[[[-6.205307720188356,53.340824865618266],[-6.204707372726981,53.340815832784116],[-6.204692277290984,53.34117513356202],[-6.2052926297936795,53.34118416651372],[-6.205307720188356,53.340824865618266]]]},"properties":{"app_id":"MOCK-12","num_units":850,"dev_type":"residential","status":"pending","received_date":"2025-03-01","description":"MOCK: 850 units, Poolbeg Peninsula","footprint_source":"buffered_point","centroid":[-6.205,53.341],"water":{"connected":false,"distance_to_network_m":181.6,"route_length_m":1215.9,"est_cost_eur":607958},"transport":{"class":"unserved","nearest_stop_m":1024,"nearest_frequent_stop_m":1024,"nearest_rail_name":"Lansdowne Road","nearest_rail_m":1792,"residents":2338,"peak_pt_trips":96.5,"proposed_route_id":"MOCK-R1"},"schools":{"primary_pupils":280.5,"secondary_pupils":194.7,"nearby_primary":["MOCK-P02","MOCK-P03"],"nearby_secondary":["MOCK-S01","MOCK-S02","MOCK-S03","MOCK-S04"],"pressure_flag":true},"scores":{"water":100.0,"transport":64.0,"schools":100.0,"overall":87.4}}}]}