{"type":"FeatureCollection","features":[{"type":"Feature","geometry":{"type":"LineString","coordinates":[[-6.223,53.3398],[-6.219,53.3395]]},"properties":{"edge_id":"mock-x1","order":0,"length_m":268.5,"serves_app_ids":["MOCK-06","MOCK-12"]}},{"type":"Feature","geometry":{"type":"LineString","coordinates":[[-6.219,53.3395],[-6.212,53.3402]]},"properties":{"edge_id":"mock-x2","order":1,"length_m":472.7,"serves_app_ids":["MOCK-12"]}},{"type":"Feature","geometry":{"type":"LineString","coordinates":[[-6.212,53.3402],[-6.205,53.341]]},"properties":{"edge_id":"mock-x3","order":2,"length_m":474.7,"serves_app_ids":["MOCK-12"]}},{"type":"Feature","geometry":{"type":"LineString","coordinates":[[-6.242,53.358],[-6.234,53.3575],[-6.2265,53.357]]},"properties":{"edge_id":"mock-x4","order":0,"length_m":1038.0,"serves_app_ids":["MOCK-03"]}}]}