{"type":"FeatureCollection","features":[{"type":"Feature","geometry":{"type":"LineString","coordinates":[[-6.248,53.348],[-6.237,53.3478],[-6.229,53.3475]]},"properties":{"edge_id":"mock-e1","confidence":"high","evidence":["hydrant:mock/1"],"length_m":1266.7}},{"type":"Feature","geometry":{"type":"LineString","coordinates":[[-6.256,53.3445],[-6.24,53.343],[-6.228,53.3405]]},"properties":{"edge_id":"mock-e2","confidence":"medium","evidence":["dcc_gullies:Pearse Street"],"length_m":1924.9}},{"type":"Feature","geometry":{"type":"LineString","coordinates":[[-6.242,53.336],[-6.23,53.331]]},"properties":{"edge_id":"mock-e3","confidence":"low","evidence":["osm_buildings_within_25m:12"],"length_m":974.0}},{"type":"Feature","geometry":{"type":"LineString","coordinates":[[-6.25,53.352],[-6.242,53.358]]},"properties":{"edge_id":"mock-e4","confidence":"medium","evidence":["manhole_sewer:mock/2"],"length_m":854.2}},{"type":"Feature","geometry":{"type":"LineString","coordinates":[[-6.228,53.3405],[-6.223,53.3398]]},"properties":{"edge_id":"mock-e5","confidence":"low","evidence":["osm_buildings_within_25m:4"],"length_m":342.0}}]}