{"type":"FeatureCollection","features":[{"type":"Feature","geometry":{"type":"LineString","coordinates":[[-6.2497,53.3509],[-6.2546,53.347],[-6.2484,53.3433],[-6.2377,53.3397],[-6.2299,53.3349],[-6.2213,53.3279],[-6.2111,53.3208]]},"properties":{"id":"MOCK-DART","mode":"dart","name":"MOCK DART (Connolly – Sydney Parade)"}},{"type":"Feature","geometry":{"type":"LineString","coordinates":[[-6.229,53.3485],[-6.237,53.3488],[-6.2436,53.3491],[-6.2475,53.3495],[-6.252,53.35],[-6.25,53.351]]},"properties":{"id":"MOCK-LUAS-RED","mode":"luas","name":"MOCK Luas Red Line (Docklands spur)"}}]}