{"type":"FeatureCollection","features":[{"type":"Feature","geometry":{"type":"Point","coordinates":[-6.241,53.351]},"properties":{"school_id":"MOCK-P01","name":"MOCK St Laurence O'Toole NS","level":"primary","enrolment":230,"projected_new_pupils":153.1,"pressure_ratio":0.666}},{"type":"Feature","geometry":{"type":"Point","coordinates":[-6.225,53.341]},"properties":{"school_id":"MOCK-P02","name":"MOCK Ringsend NS","level":"primary","enrolment":180,"projected_new_pupils":316.1,"pressure_ratio":1.756}},{"type":"Feature","geometry":{"type":"Point","coordinates":[-6.219,53.331]},"properties":{"school_id":"MOCK-P03","name":"MOCK Sandymount NS","level":"primary","enrolment":320,"projected_new_pupils":222.4,"pressure_ratio":0.695}},{"type":"Feature","geometry":{"type":"Point","coordinates":[-6.229,53.356]},"properties":{"school_id":"MOCK-P04","name":"MOCK East Wall NS","level":"primary","enrolment":150,"projected_new_pupils":153.1,"pressure_ratio":1.021}},{"type":"Feature","geometry":{"type":"Point","coordinates":[-6.256,53.355]},"properties":{"school_id":"MOCK-P05","name":"MOCK Gardiner Street NS","level":"primary","enrolment":260,"projected_new_pupils":113.5,"pressure_ratio":0.437}},{"type":"Feature","geometry":{"type":"Point","coordinates":[-6.23,53.329]},"properties":{"school_id":"MOCK-P06","name":"MOCK Ballsbridge NS","level":"primary","enrolment":210,"projected_new_pupils":82.2,"pressure_ratio":0.391}},{"type":"Feature","geometry":{"type":"Point","coordinates":[-6.25,53.354]},"properties":{"school_id":"MOCK-S01","name":"MOCK Larkin College","level":"post-primary","enrolment":520,"projected_new_pupils":180.5,"pressure_ratio":0.347}},{"type":"Feature","geometry":{"type":"Point","coordinates":[-6.229,53.333]},"properties":{"school_id":"MOCK-S02","name":"MOCK Marian College","level":"post-primary","enrolment":480,"projected_new_pupils":180.5,"pressure_ratio":0.376}},{"type":"Feature","geometry":{"type":"Point","coordinates":[-6.227,53.34]},"properties":{"school_id":"MOCK-S03","name":"MOCK Ringsend College","level":"post-primary","enrolment":300,"projected_new_pupils":180.5,"pressure_ratio":0.602}},{"type":"Feature","geometry":{"type":"Point","coordinates":[-6.261,53.3555]},"properties":{"school_id":"MOCK-S04","name":"MOCK Belvedere College","level":"post-primary","enrolment":1000,"projected_new_pupils":180.5,"pressure_ratio":0.181}}]}