{"type":"FeatureCollection","features":[{"type":"Feature","geometry":{"type":"Point","coordinates":[-6.256,53.3445]},"properties":{"stop_id":"MOCK-ST101","name":"MOCK stop 1.1","peak_buses_per_hr":12,"routes":["1","47"]}},{"type":"Feature","geometry":{"type":"Point","coordinates":[-6.2514,53.34407]},"properties":{"stop_id":"MOCK-ST102","name":"MOCK stop 1.2","peak_buses_per_hr":12,"routes":["1","47"]}},{"type":"Feature","geometry":{"type":"Point","coordinates":[-6.24679,53.34364]},"properties":{"stop_id":"MOCK-ST103","name":"MOCK stop 1.3","peak_buses_per_hr":12,"routes":["1","47"]}},{"type":"Feature","geometry":{"type":"Point","coordinates":[-6.24219,53.34321]},"properties":{"stop_id":"MOCK-ST104","name":"MOCK stop 1.4","peak_buses_per_hr":12,"routes":["1","47"]}},{"type":"Feature","geometry":{"type":"Point","coordinates":[-6.23769,53.34252]},"properties":{"stop_id":"MOCK-ST105","name":"MOCK stop 1.5","peak_buses_per_hr":12,"routes":["1","47"]}},{"type":"Feature","geometry":{"type":"Point","coordinates":[-6.23329,53.3416]},"properties":{"stop_id":"MOCK-ST106","name":"MOCK stop 1.6","peak_buses_per_hr":12,"routes":["1","47"]}},{"type":"Feature","geometry":{"type":"Point","coordinates":[-6.22889,53.34068]},"properties":{"stop_id":"MOCK-ST107","name":"MOCK stop 1.7","peak_buses_per_hr":12,"routes":["1","47"]}},{"type":"Feature","geometry":{"type":"Point","coordinates":[-6.22445,53.33983]},"properties":{"stop_id":"MOCK-ST108","name":"MOCK stop 1.8","peak_buses_per_hr":12,"routes":["1","47"]}},{"type":"Feature","geometry":{"type":"Point","coordinates":[-6.22,53.339]},"properties":{"stop_id":"MOCK-ST109","name":"MOCK stop 1.9","peak_buses_per_hr":12,"routes":["1","47"]}},{"type":"Feature","geometry":{"type":"Point","coordinates":[-6.248,53.348]},"properties":{"stop_id":"MOCK-ST201","name":"MOCK stop 2.1","peak_buses_per_hr":3,"routes":["151"]}},{"type":"Feature","geometry":{"type":"Point","coordinates":[-6.2442,53.3479]},"properties":{"stop_id":"MOCK-ST202","name":"MOCK stop 2.2","peak_buses_per_hr":3,"routes":["151"]}},{"type":"Feature","geometry":{"type":"Point","coordinates":[-6.2404,53.3478]},"properties":{"stop_id":"MOCK-ST203","name":"MOCK stop 2.3","peak_buses_per_hr":3,"routes":["151"]}},{"type":"Feature","geometry":{"type":"Point","coordinates":[-6.2366,53.3477]},"properties":{"stop_id":"MOCK-ST204","name":"MOCK stop 2.4","peak_buses_per_hr":3,"routes":["151"]}},{"type":"Feature","geometry":{"type":"Point","coordinates":[-6.2328,53.3476]},"properties":{"stop_id":"MOCK-ST205","name":"MOCK stop 2.5","peak_buses_per_hr":3,"routes":["151"]}},{"type":"Feature","geometry":{"type":"Point","coordinates":[-6.229,53.3475]},"properties":{"stop_id":"MOCK-ST206","name":"MOCK stop 2.6","peak_buses_per_hr":3,"routes":["151"]}},{"type":"Feature","geometry":{"type":"Point","coordinates":[-6.25,53.352]},"properties":{"stop_id":"MOCK-ST301","name":"MOCK stop 3.1","peak_buses_per_hr":10,"routes":["27","53"]}},{"type":"Feature","geometry":{"type":"Point","coordinates":[-6.24786,53.35361]},"properties":{"stop_id":"MOCK-ST302","name":"MOCK stop 3.2","peak_buses_per_hr":10,"routes":["27","53"]}},{"type":"Feature","geometry":{"type":"Point","coordinates":[-6.24572,53.35521]},"properties":{"stop_id":"MOCK-ST303","name":"MOCK stop 3.3","peak_buses_per_hr":10,"routes":["27","53"]}},{"type":"Feature","geometry":{"type":"Point","coordinates":[-6.24358,53.35682]},"properties":{"stop_id":"MOCK-ST304","name":"MOCK stop 3.4","peak_buses_per_hr":10,"routes":["27","53"]}},{"type":"Feature","geometry":{"type":"Point","coordinates":[-6.24127,53.35832]},"properties":{"stop_id":"MOCK-ST305","name":"MOCK stop 3.5","peak_buses_per_hr":10,"routes":["27","53"]}},{"type":"Feature","geometry":{"type":"Point","coordinates":[-6.23851,53.35955]},"properties":{"stop_id":"MOCK-ST306","name":"MOCK stop 3.6","peak_buses_per_hr":10,"routes":["27","53"]}},{"type":"Feature","geometry":{"type":"Point","coordinates":[-6.23576,53.36077]},"properties":{"stop_id":"MOCK-ST307","name":"MOCK stop 3.7","peak_buses_per_hr":10,"routes":["27","53"]}},{"type":"Feature","geometry":{"type":"Point","coordinates":[-6.233,53.362]},"properties":{"stop_id":"MOCK-ST308","name":"MOCK stop 3.8","peak_buses_per_hr":10,"routes":["27","53"]}},{"type":"Feature","geometry":{"type":"Point","coordinates":[-6.242,53.336]},"properties":{"stop_id":"MOCK-ST401","name":"MOCK stop 4.1","peak_buses_per_hr":8,"routes":["4","7","39"]}},{"type":"Feature","geometry":{"type":"Point","coordinates":[-6.23876,53.33465]},"properties":{"stop_id":"MOCK-ST402","name":"MOCK stop 4.2","peak_buses_per_hr":8,"routes":["4","7","39"]}},{"type":"Feature","geometry":{"type":"Point","coordinates":[-6.23552,53.3333]},"properties":{"stop_id":"MOCK-ST403","name":"MOCK stop 4.3","peak_buses_per_hr":8,"routes":["4","7","39"]}},{"type":"Feature","geometry":{"type":"Point","coordinates":[-6.23227,53.33195]},"properties":{"stop_id":"MOCK-ST404","name":"MOCK stop 4.4","peak_buses_per_hr":8,"routes":["4","7","39"]}},{"type":"Feature","geometry":{"type":"Point","coordinates":[-6.22909,53.33055]},"properties":{"stop_id":"MOCK-ST405","name":"MOCK stop 4.5","peak_buses_per_hr":8,"routes":["4","7","39"]}},{"type":"Feature","geometry":{"type":"Point","coordinates":[-6.22606,53.32903]},"properties":{"stop_id":"MOCK-ST406","name":"MOCK stop 4.6","peak_buses_per_hr":8,"routes":["4","7","39"]}},{"type":"Feature","geometry":{"type":"Point","coordinates":[-6.22303,53.32752]},"properties":{"stop_id":"MOCK-ST407","name":"MOCK stop 4.7","peak_buses_per_hr":8,"routes":["4","7","39"]}},{"type":"Feature","geometry":{"type":"Point","coordinates":[-6.22,53.326]},"properties":{"stop_id":"MOCK-ST408","name":"MOCK stop 4.8","peak_buses_per_hr":8,"routes":["4","7","39"]}},{"type":"Feature","geometry":{"type":"Point","coordinates":[-6.262,53.36]},"properties":{"stop_id":"MOCK-ST501","name":"MOCK stop 5.1","peak_buses_per_hr":15,"routes":["16","41"]}},{"type":"Feature","geometry":{"type":"Point","coordinates":[-6.26004,53.35739]},"properties":{"stop_id":"MOCK-ST502","name":"MOCK stop 5.2","peak_buses_per_hr":15,"routes":["16","41"]}},{"type":"Feature","geometry":{"type":"Point","coordinates":[-6.25808,53.35478]},"properties":{"stop_id":"MOCK-ST503","name":"MOCK stop 5.3","peak_buses_per_hr":15,"routes":["16","41"]}},{"type":"Feature","geometry":{"type":"Point","coordinates":[-6.25612,53.35217]},"properties":{"stop_id":"MOCK-ST504","name":"MOCK stop 5.4","peak_buses_per_hr":15,"routes":["16","41"]}},{"type":"Feature","geometry":{"type":"Point","coordinates":[-6.25407,53.34958]},"properties":{"stop_id":"MOCK-ST505","name":"MOCK stop 5.5","peak_buses_per_hr":15,"routes":["16","41"]}},{"type":"Feature","geometry":{"type":"Point","coordinates":[-6.252,53.347]},"properties":{"stop_id":"MOCK-ST506","name":"MOCK stop 5.6","peak_buses_per_hr":15,"routes":["16","41"]}},{"type":"Feature","geometry":{"type":"Point","coordinates":[-6.224,53.333]},"properties":{"stop_id":"MOCK-ST601","name":"MOCK stop 6.1","peak_buses_per_hr":2,"routes":["18"]}},{"type":"Feature","geometry":{"type":"Point","coordinates":[-6.2195,53.331]},"properties":{"stop_id":"MOCK-ST602","name":"MOCK stop 6.2","peak_buses_per_hr":2,"routes":["18"]}},{"type":"Feature","geometry":{"type":"Point","coordinates":[-6.215,53.329]},"properties":{"stop_id":"MOCK-ST603","name":"MOCK stop 6.3","peak_buses_per_hr":2,"routes":["18"]}}]}