{"type":"FeatureCollection","features":[{"type":"Feature","geometry":{"type":"LineString","coordinates":[[-6.205,53.341],[-6.219,53.3395],[-6.23,53.34],[-6.2377,53.3397]]},"properties":{"route_id":"MOCK-R1","length_km":2.2,"round_trip_min":27.6,"headway_min":20,"buses_required":2,"serves_app_ids":["MOCK-06","MOCK-12"],"peak_demand":164.7}},{"type":"Feature","geometry":{"type":"LineString","coordinates":[[-6.2265,53.357],[-6.2305,53.348],[-6.24,53.35],[-6.2497,53.3509]]},"properties":{"route_id":"MOCK-R2","length_km":2.36,"round_trip_min":28.9,"headway_min":20,"buses_required":2,"serves_app_ids":["MOCK-02","MOCK-03"],"peak_demand":55.7}},{"type":"Feature","geometry":{"type":"LineString","coordinates":[[-6.216,53.33],[-6.223,53.3345],[-6.2213,53.3279]]},"properties":{"route_id":"MOCK-R3","length_km":1.43,"round_trip_min":21.4,"headway_min":20,"buses_required":2,"serves_app_ids":["MOCK-07","MOCK-09"],"peak_demand":13.3}}]}